Organization Name,Financial Institution Type,Native CDFI (Y/N),City,State,Zipcode,Address,Organization Website
"3CORE, Inc.",Loan Fund,N,Chico,CA,95973,2515 Ceanothus Ave Ste 105,http://www.3coreeedc.org
AAFE Community Development Fund,Loan Fund,N,New York,NY,10002--530,"2 Allen Street, 7th Floor",http://aafecdf.org/
"Access to Capital for Entrepreneurs, Inc.",Loan Fund,N,Cleveland,GA,30528--838,3173 Highway 129 North,http://www.aceloans.org
Accessity,Loan Fund,N,San Diego,CA,92114--222,404 Euclid Ave. Suite # 271,https://accessity.org/
Accion Opportunity Fund Community Development,Loan Fund,N,San Jose,CA,95113--112,"111 West St. John Street, Suite 800",https://aofund.org
"Accompany Capital, Inc.",Loan Fund,N,New York,NY,10271--309,"120 Broadway, Suite 230",www.accompanycapital.org
Acelera Financial Corp,Loan Fund,N,Los Angeles,CA,90071,"333 S. Grand Ave.
Suite 3310",www.acelerafinancial.com
ADIRONDACK ECONMIC DEVELOPMENT CORPORATION,Loan Fund,N,SARANAC LAKE,NY,12983--574,67 MAIN STREET SUITE 300,http://www.aedconline.com
"Affordable Homes of South Texas, Inc.",Loan Fund,N,McAllen,TX,78501--522,1420 Erie Ave.,www.ahsti.org
"Affordable Housing Resources, Inc.",Loan Fund,N,Nashville,TN,37228--152,"50 Vantage Way, Suite 107",www.ahrhousing.org
African Development Center,Loan Fund,N,Minneapolis,MN,55454--125,1931 South 5th Street,http://www.adcminnesota.org
African Economic Development Solutions,Loan Fund,N,St Paul,MN,55104--280,1821 University Ave W Suite S-125,http://aeds-mn.org/
"Akiptan, Inc.",Loan Fund,Y,Eagle Butte,SD,57625--085,PO Box 858,akiptan.org
"Alaska Benteh Capital, LLC",Loan Fund,N,Wasilla,AK,99687--156,PO Box 871565,http://www.alaskacdfi.org
"Alaska Growth Capital BIDCO, Inc.",Loan Fund,Y,Anchorage,AK,99503,"3800 Centerpoint Drive, Suite 1100",http://www.alaskagrowth.com
"Albany Community Together, Inc.",Loan Fund,N,Albany,GA,31701--281,230 South Jackson Street  Suite 333,www.albanycommunitytogether.com
"Allies for Community Business, Inc.",Loan Fund,N,Chicago,IL,60612--182,135 N. Kedzie,a4cb.org
AltCap,Loan Fund,N,Kansas City,MO,64111--153,"300 E. 39th Street, Suite  3G",http://www.altcap.org
American Community Capital,Loan Fund,N,Boston,MA,02110,"101 Arch Street, Floor 13",https://www.bfim.com/
"American Nonprofits, Inc.",Loan Fund,N,Santa Cruz,CA,95060,333 Front Street,www.americannonprofits.org
AnewAmerica CDFI,Loan Fund,N,Oakland,CA,94612,360 14th ST - 5th FL,http://www.anewamerica.org
Apex Fund for Economic Opportunities,Loan Fund,N,Akron,OH,44304,370 East Market Street,Non given
Apoyo Financiero Inc.,Loan Fund,N,Concord,CA,94520,"​2300 Clayton Road, Suite 1170",https://www.apoyo-financiero.com
"Appalachian Assistive Technology Loan Fund, Inc.",Loan Fund,N,King of Prussia,PA,19406--120,"1004 West 9th Avenue
1st Floor",Non given
Appalachian Community Capital Corporation,Loan Fund,N,Christiansburg,VA,24073--163,"110 Peppers Ferry Road, NW",appalachiancommunitycapitalcdfi.org
Arcata Economic Development Corporation,Loan Fund,N,Eureka,CA,95501,707 K Street,http://www.aedc1.org
Arkansas Capital Corporation,Loan Fund,N,Little Rock,AR,72201--176,200 River Market Ave  Suite 400,Non given
Ascendus Inc.,Loan Fund,N,New York,NY,10004,"25 Broadway, 10th Floor",ascendus.org
ASSETS Lancaster,Loan Fund,N,Lancaster,PA,17603,100 South Queen Street Suite 246,http://www.assetsPA.org
Aura Mortgage Advisors,Loan Fund,N,Boston,MA,02119--177,10 Malcolm X Blvd,http://auramortgage.com/
"B.S.D. Capital, Inc. dba Lendistry",Loan Fund,N,Los Angeles,CA,90021,"767 S. Alameda St., Suite 340",www.lendistry.com
Baba's Cooking School LLC dba EatsPlace,Loan Fund,N,Washington,DC,20010--162,3607 Georgia Ave NW,http://www.eatsplace.com
"BAC Funding Consortium, Inc.",Loan Fund,N,Miami,FL,33147--722,6600 NW 27th Avenue,www.bacfunding.com
"Baltimore Community Lending, Inc.",Loan Fund,N,Baltimore,MD,21201,"875 Hollins Street, Suite 301",www.bclending.org
Bankers Small Business CDC of California,Loan Fund,N,San Diego,CA,92106--611,2448 Historic Decatur Rd.   Suite 200,www.cdcloans.com
BDC Community Capital Corp.,Loan Fund,N,Wakefield,MA,01880,"500 Edgewater Drive
Suite 555",Non given
Beaufort County Black Chamber of Commerce,Loan Fund,N,Beaufort,SC,29902,711 Bladen Street,http://www.bcbcc.org
BEECH CAPITAL VENTURE CORPORATION,Loan Fund,N,PHILADELPHIA,PA,19121--341,1510 CECIL B. MOORE AVE. SUITE 302,www.beechinterplex.com
BetterFi,Loan Fund,N,Coalmont,TN,37313,9933 TN-56,https://www.betterfi.co
"Black Business Investment Fund, Inc.",Loan Fund,N,Orlando,FL,32801--273,301 E. Pine Street  Suite 175,www.bbif.com
"BLACK ECONOMIC DEVELOPMENT COALITION, INC.",Loan Fund,N,MIAMI,FL,33142--362,5120 NW 24th AVE,tfcmiami.org
"Black Hills Community Loan Fund, Inc.",Loan Fund,Y,Rapid City,SD,57703,"1764 Centre Street, Suite 1",www.bhclf.org
BlueHub Loan Fund Inc,Loan Fund,N,Boston,MA,02119--177,10 Malcolm X Boulevard,www.bluehubcapital.org
BOC Capital Corp.,Loan Fund,N,Brooklyn,NY,11217--160,"85 South Oxford, 2nd floor",www.boccapital.org
Border Financial Resources Inc,Loan Fund,N,San Luis,AZ,85349--680,"P. O. Box 730 - 963 E B Street, Suite 100",http://www.comiteaz.com/programs-border-financial-resources.html
"Brazos Valley CDC, Inc.",Loan Fund,N,Bryan,TX,77802,"4001 E. 29th Street, Suite 180",http://www.bvahc.org
Bridge Investment Community Development Corporation,Loan Fund,N,Rock Island,IL,61201--802,"100 19th Street
Suite 109",www.bridgeinvestmentcdc.org
"Bridgeway Capital, Inc.",Loan Fund,N,Pittsburgh,PA,15219,"310 Grant Street, Suite 2800",www.bridgewaycapital.org
"Brightbridge, Inc.",Loan Fund,N,Chattanooga,TN,37402,506 Broad Street,Non given
"Brooklyn Alliance Capital, Inc.",Loan Fund,N,Brooklyn,NY,11232--242,253 36th St Unit 17,https://www.brooklynchamber.com/services/financing/
"Build Fund, LLC",Loan Fund,N,indianapolis,IN,46202--181,1704 Bellefontaine Street,https://buildfund.org/
Building Hope Finance,Loan Fund,N,Washington,DC,20006--261,910 17th St. NW Ste 1100,http://www.bhope.org
Business Development Corp of SC,Loan Fund,N,Columbia,SC,29210--841,111 Executive Center Drive Ste 225,http://www.bdcofsc.org
Business Expansion Funding Corporation,Loan Fund,N,Charlotte,NC,28210,"5970 Fairview Rd.
Suite 218",https://www.befcor.com/
"BUSINESS RESOURCE AND INVESTMENT SERVICE CENTER, INC.",Loan Fund,N,New York,NY,10027--451,"55 West 125th St, 11th Floor",Non given
"Business Seed Capital, Inc.",Loan Fund,N,Roanoke,VA,24001--286,PO Box 2868,www.tapintohope.org
"Businesses Invest in Growth, Inc.",Loan Fund,N,Austin,TX,78754,"8000 Centre Park Dr., Suite 200",www.bigaustin.org
Butte Local Development Corporation,Loan Fund,N,Butte,MT,59703--050,PO BOX 507,http://www.bldc.net
CAHEC Capital Inc,Loan Fund,N,Raleigh,NC,27615--330,7700 Falls of Neuse Rd Ste 200,http://www.cahec.com
California Capital Small Business Financial Development Corporation,Loan Fund,N,Sacramento,CA,95815--432,"1792 Tribute Rd, Suite 270",www.cacapital.org
California Coastal Rural Development Corporation,Loan Fund,N,Salinas,CA,93901--047,221 Main Street  Suite 301,http://www.calcoastal.org
California Community Reinvestment Corp.,Loan Fund,N,Glendale,CA,91210,100 West Broadway  Suite 1000,http://e-ccrc.org
California FarmLink,Loan Fund,N,Aptos,CA,95003--395,335 Spreckels Dr. Suite F,http://www.californiafarmlink.org
CAMBA Economic Development Corporation,Loan Fund,N,Brooklyn,NY,11226--267,1720 Church Avenue,www.camba.org
"CANI’s Center for Community and Economic Development, Inc. dba Brightpoint Development Fund",Loan Fund,N,Fort Wayne,IN,46802,227 E. Washington Blvd.,http://www.mybrightpoint.org
Cape & Islands Community Development Inc.,Loan Fund,N,Centerville,MA,02632--142,5 Patti Page Way,http://www.coastalcommunitycapital.org
Capital for Change,Loan Fund,N,Wallingford,CT,06492--243,10 Alexander Drive,www.capitalforchange.org
Capital Impact Partners,Loan Fund,N,Arlington,VA,22202--416,"1400 Crystal Drive, Suite 500",www.capitalimpact.org
Capital Plus Financial,Loan Fund,N,Bedford,TX,76021,2247 Central Dr.,www.capitalplusfin.com
"Cares Project, Inc., The",Loan Fund,N,Winston Salem,NC,27103,"3410 Healy Drive, Suite 209",thecaresproject.org
"Carolina Community Impact, Inc.",Loan Fund,N,Raleigh,NC,27622,P.O. Box 30662,Non given
Carolina Small Business Development Fund (The Support Center),Loan Fund,N,Raleigh,NC,27604--103,3128 Highwoods Blvd  Suite 170,www.carolinasmallbusiness.org
Catalyst Development Corporation,Loan Fund,N,Savannah,GA,31401--550,"701 Martin Luther King, Jr. Blvd.",www.catalyst4people.org
Catalytic Development Funding Corp. of Northern Kentucky,Loan Fund,N,COVINGTON,KY,41011--160,"50 E RIVERCENTER BLVD
STE 260",http://www.thecatalyticfund.org
CBA Fund,Loan Fund,N,Washington,DC,20006,"1701 K Street NW
Suite 1000",Non given
CDCLI Funding Corporation,Loan Fund,N,Melville,NY,11747,"1660 Walt Whitman Road, Suite 130",http://www.cdcli.org
Center for Rural Affairs Community Capital,Loan Fund,N,Lyons,NE,68038--013,145 Main Street  PO Box 136,http://www.cfra.org/reap
CEN-TEX CERTIFIED DEVELOPMENT CORPORATION,Loan Fund,N,AUSTIN,TX,78701,1011 San Jacinto Blvd. Suite 500,http://www.bcloftexas.org
Central County Community Development Corporation,Loan Fund,N,Fort Lauderdale,FL,33311,560 NW 27th Ave,Non given
Century Housing Corporation,Loan Fund,N,Culver City,CA,90230--761,1000 Corporate Pointe,http://www.centuryhousing.org
"Champions Funding, LLC",Loan Fund,N,Gilbert,AZ,85297,"365 E Germann Rd
Suite 140",www.champstpo.com
"Change Lending, LLC",Loan Fund,N,Anaheim,CA,92808,"175 N. Riverview Drive, suite D",www.changemtg.com
Charter Schools Development Corporation,Loan Fund,N,Hanover,MD,21076--231,7880 Milestone Pkwy Suite 425,http://csdc.org
"Chattanooga Neighborhood Enterprise, Inc.",Loan Fund,N,Chattanooga,TN,37408--101,"1500 Chestnut St., Suite 102",www.cneinc.org
"Chautauqua Opportunities for Development, Inc.",Loan Fund,N,Dunkirk,NY,14048--272,17 West Courtney Street,http://www.chautauquaopportunities.com
"Chi Ishobak, Inc.",Loan Fund,Y,Dowagiac,MI,49047--777,P.O. Box 766,www.chiishobak.org
"Chicago Community Loan Fund, The",Loan Fund,N,Chicago,IL,60602--441,"29 East Madison Street, Suite 1700",www.cclfchicago.org
"Children's Investment Fund, Inc.",Loan Fund,N,Boston,MA,02108--230,"18 Tremont Street, Suite 500",https://cedac.org/cif/
CHN Housing Capital,Loan Fund,N,Cleveland,OH,44114--444,"2999 Payne Avenue, Ste. 134",https://chnhousingcapital.org/
Choctaw Home Finance Corporation,Loan Fund,Y,Hugo,OK,74743--801,P.O. Box G,www.choctawhomefinance.web-loans.com
"Cincinnati Development Fund, Inc.",Loan Fund,N,Cincinnati,OH,45202--710,1224 Race Street,http://www.cincinnatidevelopmentfund.org
Cinnaire Lending Corporation,Loan Fund,N,Chicago,IL,60606--241,225 West Washington Street  Suite 1350,www.cinnaire.com
Citizen Potawatomi Community Development Corporation,Loan Fund,Y,Shawnee,OK,74804--211,1545 Gordon Cooper Dr.,http://www.cpcdc.org
City First Enterprises Inc,Loan Fund,N,Washington,DC,20036,"1701 Rhode Island NW
Suite 3-103",http://www.cfenterprises.org
City First Homes Inc.,Loan Fund,N,Washington,DC,20036,"1701 Rhode Island NW
Suite 3-103",www.cfhomes.org
"Civic Community Partners, Inc.",Loan Fund,N,San Diego,CA,92108--164,"8989 Rio San Diego Dr., Suite 100",http://www.CivicCommunities.com
Clearinghouse Community Development Financial Institution,Loan Fund,N,Lake Forest,CA,92630--473,"23861 El Toro Road, Suite 701",http://www.clearinghousecdfi.com
"Cleveland Development Advisors Community Reinvestment Fund, Inc.",Loan Fund,N,Cleveland,OH,44115--172,1240 Huron Rd E Ste 300,www.clevelanddevelopmentadvisors.com
CLIMB Fund,Loan Fund,N,Charleston,SC,29403,2 Race Street,www.climbfund.org
"Coastal Enterprises, Inc.",Loan Fund,N,Brunswick,ME,04011--151,"30 Federal Street
Suite 100",www.ceimaine.org
"Colorado Enterprise Fund, Inc.",Loan Fund,N,Denver,CO,80203--116,"1888 Sherman Street, Suite 530",http://coloradoenterprisefund.org
"Colorado Housing Enterprises, LLC",Loan Fund,N,Westminster,CO,80030--170,7305 Lowell Blvd.  Suite 200,www.crhdc.org
Columbus Housing Initiative,Loan Fund,N,Columbus,GA,31902--162,PO Box 1620,http://nwcolumbus.org
"Common Capital, Inc.",Loan Fund,N,Springfield,MA,01103,1780 Main Street,www.commoncapitalma.org
"Communities Unlimited, Inc.",Loan Fund,N,Fayetteville,AR,72703--288,3 East Colt Square Drive,http://www.CommunitiesU.org
Community and Shelter Assistance Corporation,Loan Fund,N,Sherwood,OR,97140--993,20508 SW Roy Rogers Road  Suite 155,http://www.casaoforegon.org
Community Assets for People,Loan Fund,N,Stevens Point,WI,54481,"2900 Hoover Road
Suite A",www.capservices.org
Community Business Partnership,Loan Fund,N,Springfield,VA,22150--190,6564 Loisdale ourt  Suite 600,http://www.cbponline.org
"Community Capital New York, Inc",Loan Fund,N,Elmsford,NY,10523--132,"44 Executive Blvd, Suite 203",www.communitycapitalny.org
"Community Capital of Vermont, Inc.",Loan Fund,N,Barre,VT,05641--034,PO Box 342,http://www.communitycapitalvt.org
"Community Development and Affordable Housing Fund, LLC",Loan Fund,N,Brookline,MA,02445--412,53 Willard Rd,www.candeurgroup.com
Community Development Capital,Loan Fund,N,New Orleans,LA,70115--241,"3436 Magazine Street, Suite 601",www.cdcapital.org
Community Development Financial Institution of the Tohono O'odham Nation,Loan Fund,Y,Sells,AZ,85634,P.O. Box 3130,www.cdfiton.org
Community Development Fund of Utah,Loan Fund,N,Salt Lake City,UT,84105--291,501 E 1700 South,cdcutah.org
Community Development Resources,Loan Fund,N,Lincoln,NE,68505,912 N. 70th St.,www.cdr-nebraska.org
"Community Development Trust, LP, The",Loan Fund,N,New York,NY,10018--770,1350 Broadway  Suite 700,www.cdt.biz
"Community Economic Development Fund I, LLC",Loan Fund,N,Meriden,CT,06450--600,965 East Main Street,cedf.com
Community Enterprise Development Services,Loan Fund,N,Aurora,CO,80010,10660 E Colfax Ave Ste B,http://www.cedsfinance.org
Community First Fund,Loan Fund,N,Lancaster,PA,17608--052,P.O. Box 524,www.communityfirstfund.org
Community First Lending,Loan Fund,N,Richmond,CA,94801--152,1535 Fred Jackson Way Suite A,Not Available
Community Fund of North Miami-Dade Inc.,Loan Fund,N,Opa-locka,FL,33054,"490 Opa-Locka Blvd, Suite 20",www.olcdc.org
"Community Health Center Capital Fund, Inc.",Loan Fund,N,Boston,MA,02108--221,40 Court Street  10th Floor,chc-capitalfund.org
"Community Housing Capital, Inc.",Loan Fund,N,Decatur,GA,30030--240,402 E. Howard Avenue,CommunityHousingCapital.org
Community Housing Fund,Loan Fund,N,Beaverton,OR,97005--237,3700 SW Murray Blvd. #2200,http://thechf.org
Community Investment Collaborative,Loan Fund,N,Charlottesville,VA,22902,PO Box 2976,cicville.org
Community Investment Corporation,Loan Fund,N,Chicago,IL,60606--610,222 South Riverside Plaza  Suite 380,www.cicchicago.com
Community Investment Fund of Indiana Inc.,Loan Fund,N,Indianapolis,IN,46240,"4181 East 96th Street, Ste 200",www.capitalizingIndiana.org
Community LendingWorks,Loan Fund,N,Springfield,OR,97477--537,212 Main Street,http://www.communitylendingworks.org/
"Community Loan Fund of New Jersey, Inc.",Loan Fund,N,New Brunswick,NJ,08901--129,"100 Albany Street, Suite 250",www.newjerseycommunitycapital.org
"Community Loan Fund of the Capital Region, Inc.",Loan Fund,N,Albany,NY,12210--240,255 Orange Street  #103,http://www.mycommunityloanfund.org
Community Neighborhood Housing Services,Loan Fund,N,St Paul,MN,55103--191,533 Dale Street North,www.nwhomepartners.org
Community Preservation Corporation,Loan Fund,N,New York,NY,10017,"220 E 42nd Street, 16th Floor",www.communityp.com
"Community Redevelopment Loan and Investment Fund, Inc.",Loan Fund,N,Atlanta,GA,30303--160,"229 Peachtree Street NE, Ste 705",www.andpi.org/loanfund
"Community Reinvestment Fund, Inc",Loan Fund,N,Minneapolis,MN,55402--253,801 Nicollet Mall  Suite 1700W,http://www.crfusa.com
"Community Ventures Corporation, Inc.",Loan Fund,N,Lexington,KY,40505--316,1450 North Broadway,www.cvky.org
Community Vision Capital and Consulting,Loan Fund,N,San Francisco,CA,94102--302,"870 Market Street, Suite 677",www.communityvisionca.org
CommunityWorks,Loan Fund,N,Greenville,SC,29606,PO Box 17826,http://communityworkscarolina.org
"CommunityWorks in West Virginia, Inc.",Loan Fund,N,Charleston,WV,25302--471,4302 Crede Drive,http://www.communityworkswv.org
CommunityWorks North Dakota,Loan Fund,N,MANDAN,ND,58554--310,200 1st Avenue NW,www.lcdgroup.org
"Cook Inlet Lending Center, Inc.",Loan Fund,Y,Anchorage,AK,99503--377,"3600 Spenard Rd, Ste 100",www.cookinletlending.com
"Cooperative Business Assistance Corp, The",Loan Fund,N,Camden,NJ,08102--152,328 Market Street,cbaclenders.com
"Cooperative Fund of the Northeast, Inc.",Loan Fund,N,Watertown,MA,02471--097,P.O. Box 970,www.coopfund.coop
CORE Community Partners,Loan Fund,N,Bingham Farms,MI,48025,32500 Telegraph Road,corecommunitypartners.com
"Core Tech Capital, Inc.",Loan Fund,N,Tamuning,GU,96913--393,"388 S. Marine Corps Drive, STE 400",www.coretechintl.com
Corporacion Para El Financiamiento Empresarial Del Comercio Y De Las Comunidades (COFECC),Loan Fund,N,San Juan,PR,00919--179,PO Box 191791,http://www.cofecc.net
Corporation for Supportive Housing,Loan Fund,N,New York,NY,10006--270,"61 Broadway, 23rd Floor",www.csh.org
Council for Native Hawaiian Advancement,Loan Fund,Y,Kapolei,HI,96707--412,"91-1270 Kinoiki St., Bldg. 1",www.hawaiiancouncil.org
Craft3,Loan Fund,N,Seattle,WA,98104,"409 Maynard Avenue South, Suite 200",http://www.craft3.org
Creser Capital Fund,Loan Fund,N,Sausalito,CA,94965,"180 Harbor Drive, Suite 224",https://cresercapital.org/
Culleywood Capital,Loan Fund,N,Jackson,MS,39216,"3100 Old Canton Road, Suite 200",https://www.culleywoodcapital.com
Cumberland Capital Partners,Loan Fund,N,Nashville,TN,37211,2015 Gladstone Avenue,cumberlandcapitalpartners.org
Dakota Business Lending,Loan Fund,N,Fargo,ND,58104,5630 36th Ave. S,www.dakotabusinesslending.com
Dakota Resources,Loan Fund,N,Renner,SD,57055--654,25795 475th Ave  Suite 1,dakotaresources.org
DAYTON REGION NEW MARKET FUND LLC,Loan Fund,N,Dayton,OH,45402--190,8 North Main Street,www.citywidedev.com
Denkyem SPC,Loan Fund,N,Renton,WA,98057,241 Williams Ave. S. #2,https://denkyemcoop.com/
Detroit Development Fund,Loan Fund,N,Detroit,MI,48202,"3031 W. Grand Blvd, Suite 505",www.detroitdevelopmentfund.com
Detroit Rehabilitation Initiatives LLC,Loan Fund,N,West Palm Beach,FL,33401,319 Clematis St STE 808,www.drifund.com
"Disability Fund, Inc., The",Loan Fund,N,Rockville Centre,NY,11570--491,"265 Sunrise Highway
Suite 45",http://www.thedof.org
"Dorchester Bay Neighborhood Loan Fund, Inc.",Loan Fund,N,Dorchester,MA,02125--343,"594 Columbia Road, Suite 302",http://www.dbedc.org
"DreamKey Partners Mortgage, Inc.",Loan Fund,N,Charlotte,NC,28217--192,4601 Charlotte Park Drive  Suite 350,www.dkp.org
DreamSpring,Loan Fund,N,Albuquerque,NM,87104--204,2000 Zearing Ave. NW,www.DreamSpring.org
Eastern Maine Development Corporation,Loan Fund,N,Bangor,ME,04401--510,40 Harlow Street,http://www.emdc.org
ECDC Enterprise Development Group,Loan Fund,N,Arlington,VA,22204--240,901 S. Highland Street,https://www.edgus.org/
"Economic and Community Development Institute, Inc. (ECDI)",Loan Fund,N,Columbus,OH,43219--254,1655 Old Leonard Ave,http://www.ecdi.org
Economic Development and Financing Corporation,Loan Fund,N,Ukiah,CA,95482--484,208 B South Oak St.,http://www.edfc.org
Economic Empowerment Center,Loan Fund,N,Omaha,NE,68107,P.O. Box 7346,www.lendinglinkomaha.org
Economic Justice Fund,Loan Fund,N,Sacramento,CA,95814--340,1007 7th St Fl 4 Ste 416,www.economicjusticefund.org
Economic Opportunities Fund,Loan Fund,N,Philadelphia,PA,19103--441,2010 Chestnut Street,http://worc-pa.com
"Edge Fund, LLC",Loan Fund,N,Indianapolis,IN,46202--181,1704 Bellefontaine St,https://myedgefund.org/
El Paso Collaborative for Community and Economic Development,Loan Fund,N,El Paso,TX,79905,3607 Rivera Avenue,www.pvida.net
"Enterprise Center Capital Corporation, The",Loan Fund,N,Philadelphia,PA,19139--361,4548 Market Street,http://theenterprisecenter.com/capcorp/
"Enterprise Community Loan Fund, Inc.",Loan Fund,N,Columbia,MD,21044--349,"70 Corporate Center  11000 Broken Land Parkway, Suite 700",http://www.enterprisecommunity.org
Enterprise Development Fund of Erie County,Loan Fund,N,Erie,PA,16501,"1611 Peach Street, Suite 405",Non given
"Entre Capital, LLC",Loan Fund,N,Dallas,TX,75231--108,10830 N. Central Expressway Ste 240,www.entrecapital.com
Entrepreneur Works Fund,Loan Fund,N,Philadelphia,PA,19106--251,"400 Market Street, Suite 210",http://www.myentrepreneurworks.org
"Federation of Appalachian Housing Enterprises, Inc.",Loan Fund,N,Berea,KY,40403--090,319 Oak St,www.fahe.org
Feed the Hunger Fund,Loan Fund,N,San Francisco,CA,94129--171,"100 Montgomery St
The Presidio",feed-hunger.com
Fig Loans Texas LLC,Loan Fund,N,sugar land,TX,77479,"2245 Texas Drive, Suite 300",www.figloans.com
Finance Fund Capital Corporation,Loan Fund,N,Columbus,OH,43215,"366 East Broad Street, Suite 101",www.financefund.org
FINANTA,Loan Fund,N,Philadelphia,PA,19122--450,1301 N. 2nd Street,http://www.finanta.org
"First American Capital Corporation, Inc.",Loan Fund,Y,Hale Corners,WI,53130--203,10710 West Scharles Avenue,www.aiccw-facc.org
First Children's Finance,Loan Fund,N,Minneapolis,MN,55401,212 Third Avenue North Suite 310,http://www.firstchildrensfinance.org
"First Community Capital, Inc.",Loan Fund,N,Riverside,CA,92507,2060 Chicago Ave. STE  A11,www.fccbi.org
First Nations Community Financial,Loan Fund,Y,Black River Falls,WI,54615--880,206 S. Roosevelt Rd. Suite 123,www.firstnationsfinancial.org
"FIVE RIVERS LOAN FUND, INC",Loan Fund,Y,Happy Camp,CA,96039--000,P O BOX 805,5rlf.org
"Flagship Enterprise Capital, Inc.",Loan Fund,N,Anderson,IN,46013--967,2705 Enterprise Drive Suite #150,www.bankable.org
Florida Community Loan Fund,Loan Fund,N,Orlando,FL,32803,"800 N. Magnolia Avenue
Suite 106",www.fclf.org
Foodshed Capital,Loan Fund,N,Charlottesville,VA,22903,101 Devon Road,https://foodcap.org
"FORGE, Inc.",Loan Fund,N,Huntsville,AR,72740--113,PO Box 1138,http://www.forgefund.org
"Forward Community Investments, Inc.",Loan Fund,N,Madison,WI,53713,"2352 S Park Street
Suite 326",www.forwardci.org
"Four Bands Community Fund, Inc.",Loan Fund,Y,Eagle Butte,SD,57625--093,P.O. Box 932,www.fourbands.org
Four Directions Development Corporation,Loan Fund,Y,Orono,ME,04473--361,"20 Godfrey Drive, Unit 7",www.fourdirectionsmaine.org
Fresno Area Hispanic Foundation,Loan Fund,N,Fresno,CA,93721--161,1444 Fulton Street,www.fresnoahf.org
"Frontier Housing, Inc.",Loan Fund,N,Morehead,KY,40351--913,5445 Flemingsburg Road,http://www.FrontierKY.org
"Gateway Community Development Fund, Inc.",Loan Fund,N,St. Louis,MO,63102,707 N. 2nd Street  Suite 308,http://www.gatewaycdfi.com
"Genesis Fund, Inc.",Loan Fund,N,Brunswick,ME,04011--191,22 Lincoln Street,http://www.genesisfund.org
Genesis LA Economic Growth Corporation,Loan Fund,N,Los Angeles,CA,90017--461,"801 S. Grand Avenue, Suite 850",http://www.genesisla.org
"Georgia Cities Foundation, Inc.",Loan Fund,N,Atlanta,GA,30303--360,201 Pryor St. SW,http://www.georgiacitiesfoundation.org/
"Grameen America, Inc.",Loan Fund,N,Jackson Heights,NY,11372--701,8211 37th Ave Ste 607,http://www.grameenamerica.org
Grand Rapids Opportunities for Women,Loan Fund,N,Grand Rapids,MI,49507--380,1333 Alger St SE Ste 5,http://www.growbusiness.org
"Great Falls Development Authority, Inc.",Loan Fund,N,Great Falls,MT,59403--094,P.O. Box 949,http://www.GrowGreatFallsMontana.org
Great Lakes Womens Business Council,Loan Fund,N,Livonia,MI,48150,33109 Schoolcraft Rd.,greatlakeswbc.org
Great Northern Development Corporation,Loan Fund,N,Wolf Point,MT,59201--144,233 Cascade Street,http://www.gndc.org
"Great Rivers Community Capital, Incorporated",Loan Fund,N,St. Louis,MO,63106--164,1023 N. Grand Blvd.,http://www.justinepetersen.org/small_business/great_rivers_community_capital1/
"Great Rivers Community Trust, DBA Scale Link",Loan Fund,N,Zebulon,NC,27597,33 S CHESAPEAKE WAY,www.scalelink.org
"Greater Cincinnati Microenterprise Initiative, Inc.",Loan Fund,N,Cincinnati,OH,45237--381,1740 Langdon Farm Road  Suite 378,www.gcmi.org
"Greater Jamaica Local Development Company, Inc.",Loan Fund,N,Jamaica,NY,11432--615,90-04 161st Street,www.gjdc.org
Greater Minnesota Housing Fund,Loan Fund,N,St. Paul,MN,55101--131,332 Minnesota Street  Suite 1650 West,http://www.gmhf.com
Greater Newark Enterprises Corporation,Loan Fund,N,Newark,NJ,07103--356,"211 Warren Street, Suite 423",www.gnec.org
Greater Rochester Housing Partnership,Loan Fund,N,Rochester,NY,14614,"16 East Main Street, suite 610",grhp.org
"Greenline Community Development Fund, LLC",Loan Fund,N,Denver,CO,80202--186,"1555 Blake Street
Suite 210",www.greenlineventures.com
"Greenwood Archer Capital, Inc.",Loan Fund,N,Chicago,IL,60628--461,1000 E. 111th Street  10th Floor,https://greenwoodarchercapital.org/
"Grow America Fund, Inc.",Loan Fund,N,Boston,MA,02284--533,PO Box 845339,www.growamerica.org
Grow South Dakota,Loan Fund,N,Sisseton,SD,57262--190,104 Ash Street East,http://www.growsd.org
Growth Partners Arizona,Loan Fund,N,Tucson,AZ,85711--263,"333 N. Wilmot Road
Suite 227",https://www.growthpartnersaz.org/
Haa Yakaawu Financial Corporation,Loan Fund,Y,Juneau,AK,99801,5446 Jenkins Drive,Non given
"Habitat Capital, LLC",Loan Fund,N,Atlanta,GA,30303--122,"285 Peachtree Center Avenue NE
Suite 2700",Non given
Habitat Community Capital,Loan Fund,N,Oakland,CA,94612,"2619 Broadway
Suite 200",https://www.habitatebsv.org/habitatcommunitycapital
"Habitat for Humanity International, Inc. d/b/a Habitat for Humanity of Dane County",Loan Fund,N,Madison,WI,53719,6201 Odana Rd,http://habitatdane.org
"Habitat for Humanity NYC Fund, Inc.",Loan Fund,N,New York,NY,10038--310,"111 John Street, 7th Floor, Suite 770",Non given
"Habitat for Humanity of Iowa, Inc.",Loan Fund,N,Altoona,IA,50009--230,"809 8th St. SW, Ste F",http://www.iowahabitat.org
"Habitat for Humanity of Minnesota, Inc.",Loan Fund,N,St. Paul,MN,55114,2171 University Ave.W.,www.hfhmn.org
Habitat for Humanity of Oregon,Loan Fund,N,Portland,OR,97217--414,5825 N Greeley Ave,habitatoregon.org
"Habitat Omaha Affordable Mortgage Solutions, Inc.",Loan Fund,N,Omaha,NE,68102,"1229 Millwork Ave, Suite 301",Non given
Harbor Bank of Maryland Community Development Corporation,Loan Fund,N,Baltimore,MD,21201--370,25 West Fayette Street,www.harborcdc.org
"Harlem Entrepreneurial Fund, LLC",Loan Fund,N,New York,NY,10027--484,"361 West 125th Street, 2nd FL",https://www.hefnyc.org
Hartford Community Loan Fund,Loan Fund,N,Hartford,CT,06105,215 Garden St.,HartfordLoans.org
Hartford Economic Development  Corporation,Loan Fund,N,Hartford,CT,06106,207 Main St. 4th Fl,http://www.hedco-ct.com
Hawaii Community Lending Inc,Loan Fund,Y,Waimanalo,HI,96795,PO Box 210,www.HawaiiCommunityLending.com
Hawaii Community Reinvestment Corporation,Loan Fund,N,HONOLULU,HI,96801,P.O. Box 3409,http://www.hcrchawaii.com
Hawaii Habitat for Humanity Association,Loan Fund,N,Honolulu,HI,96822,"C/O LCH
1730 Punahou Street",http://hawaiihabitat.org/
HDC Community Fund LLC,Loan Fund,N,Portland,OR,97214,"524 E Burnside Street, Suite 210",www.hdc-nw.org
HHOC Mortgage,Loan Fund,N,Honolulu,HI,96817--396,1259 Aala St #201,http://www.hhocmortgage.org
Hmong American Partnership ECDC,Loan Fund,N,Saint Paul,MN,55103,"394 University Ave W
2nd Floor",www.hmong.org
Hmong Wisconsin Chamber of Commerce,Loan Fund,N,Milwaukee,WI,53225,5423 N. 118th Ct,http://hmongchamber.org
Ho-Chunk Community Capital Inc.,Loan Fund,Y,Winnebago,NE,68071,214 Ho Chunk Plaza North,www.hochunkcdfi.org
"Home Headquarters, Inc.",Loan Fund,N,Syracuse,NY,13204--242,"538 Erie Blvd., West,  Suite 100",www.homehq.org
Homeownership Lending LLC,Loan Fund,N,New York,NY,10005--402,120 Wall street  20th Floor,https://www.homeownershiplending.org/loanprogram
Homes Are Possible Inc.,Loan Fund,N,Aberdeen,SD,57401,125 South 2nd Street,homesarepossible.org
"HomesFund (La Plata Homes Fund, Inc.)",Loan Fund,N,Durango,CO,81302--217,PO Box 2179,www.homesfund.org
HomeSight,Loan Fund,N,Seattle,WA,98118--192,5117 Rainier Avenue South,www.homesightwa.org
"Homewise, Inc.",Loan Fund,N,Santa Fe,NM,87507--311,"1301 Siler Road, Bldg D",www.homewise.org
Hope Enterprise Corporation,Loan Fund,N,Jackson,MS,39202--343,4 Old River Place  Suite A,https://www.hopecu.org
Hopi Credit Association,Loan Fund,Y,Keams Canyon,AZ,86034--125,P.O. Box 1259,hopicredit.us
Housing Assistance Council,Loan Fund,N,Washington,DC,20036,"1828 L Street NW, Suite 505",www.ruralhome.org
"Housing Development Fund, Inc.",Loan Fund,N,Stamford,CT,06901--169,100 Prospect Street  Suite 100,www.hdfconnects.org
"Housing Partnership Fund, Inc., The",Loan Fund,N,Boston,MA,02108--261,One Washington Mall  12th Floor,www.housingpartnership.net
Housing Trust Fund of Santa Barbara County,Loan Fund,N,Santa Barbara,CA,93160--090,P.O. Box 60909,www.sbhousingtrust.org
Housing Trust Fund Ventura County,Loan Fund,N,Camarillo,CA,93010--632,"360 Mobil Ave., Suite 213A",www.housingtrustfundvc.org
Housing Trust Silicon Valley,Loan Fund,N,San Jose,CA,95113--183,"75 E Santa Clara Street, Suite 1350",http://www.housingtrustsv.org
"Houston Business development, Inc.",Loan Fund,N,Houston,TX,77021--377,5330 Griggs Road,http://www.hbdi.org
"Hudson Valley Agri-Business Development Corporation, The",Loan Fund,N,Hudson,NY,12534,507 Warren St,www.hvadc.org
Human/Economic Appalachian Development Corporation,Loan Fund,N,London,KY,40743,PO Box 995,www.headcorp.org
IFF,Loan Fund,N,Chicago,IL,60604--410,"333 South Wabash Avenue
Suite 2800",www.iff.org
Impact Capital,Loan Fund,N,Seattle,WA,98104,701 Fifth Ave Suite 5500,www.impactcapital.org
Impact Development Fund,Loan Fund,N,Loveland,CO,80537--487,200 E. 7th St. #412,http://www.impactdf.org
"Impact Loan Fund, Inc.",Loan Fund,N,Philadelphia,PA,19134--312,1952 East Allegheny Avenue,www.impactloanfund.org
"Impact Seven, Incorporated",Loan Fund,N,Rice Lake,WI,54868--752,2961 Decker Dr.,www.impactseven.org
Inclusiv Inc,Loan Fund,N,New York,NY,10006--306,39 Broadway  Suite 2140,www.inclusiv.org
Inclusive Action for the City,Loan Fund,N,Los Angeles,CA,90033,2900 E Cesar E Chavez Ave,www.inclusiveaction.org
Indian Land Capital Company LLC,Loan Fund,Y,Little Canada,MN,55117--152,151 County Road B2 E,http://www.ilcc.net
"Indianapolis Neighborhood Housing Partnership, Inc.",Loan Fund,N,Indianapolis,IN,46205--371,3550 North Washington Blvd.,www.inhp.org
Initiative Foundation,Loan Fund,N,Little Falls,MN,56345--300,405 First Street SE,http://www.ifound.org
"Institute Capital, Inc.",Loan Fund,N,Durham,NC,27701,114 West Parrish  Street,www.theinstitutenc.org
Institute for Community Economics,Loan Fund,N,Washington,DC,20007--377,"1101 30th Street, NW  Suite 400",http://www.nhtinc.org/ice.php
International Institute CDC,Loan Fund,N,St. Louis,MO,63118--200,3401 Arsenal St.,http://www.iistl.org
Invest Detroit Foundation,Loan Fund,N,Detroit,MI,48243--180,600 Renaissance Center  Suite 1710,investdetroit.com
Invest PGH Inc.,Loan Fund,N,Pittsburgh,PA,15219--134,"412 Boulevard of the Allies 
Suite 901",www.investpgh.org
Iowa Center Loan Fund,Loan Fund,N,DES MOINES,IA,50312,2210 GRAND AVENUE,Non given
Iowa Community Capital,Loan Fund,N,Boone,IA,50036--079,"915 8th Street, Suite 205",Non given
"IRC's Center For Economic Opportunity, Inc. (CEO)",Loan Fund,N,New York,NY,10168--128,"c/o Jennifer Sime 
122 E. 42nd Street, 12th Floor",http://irc-ceo.org/
"Ithaca Neighborhood Housing Services, Inc.",Loan Fund,N,Ithaca,NY,14850--563,115 West Clinton Street,www.ithacanhs.org
"JARI Growth Fund, Inc.",Loan Fund,N,Johnstown,PA,15901--291,"245 Market Street, Suite 200",www.jarigrowthfund.com
"Just Community, LLC",Loan Fund,N,Austin,TX,78715,PO Box 153188,www.hellojust.com
Justine Petersen Housing & Reinvestment Corporation,Loan Fund,N,St. Louis,MO,63106,1023 North Grand Blvd,www.justinepetersen.org
Kentucky Habitat for Humanity,Loan Fund,N,Louisville,KY,40207--239,330 N. Hubbards Lane #3,http://www.kyhabitat.org
La Fuerza Unida Community Development Corporation,Loan Fund,N,Rockville Centre,NY,11570--491,"265 Sunrise Highway, Ste.  1-702","http://www,lafuerzacdc.org"
"Lafayette Neighborhood Housing Services, Inc.",Loan Fund,N,Lafayette,IN,47905,671 N. 36th Street,http://www.homesteadcs.org
Lake County Community Development Corp.,Loan Fund,N,Ronan,MT,59864--271,407 Main Street SW,http://www.lakecountycdc.org/
Lake Superior Community Development Corp.,Loan Fund,Y,L'Anse,MI,49946--101,1 N. Front Street,https://www.lakesuperiorcdc.com/
"Lakeview Community Capital, LLC",Loan Fund,N,Horsham,PA,19044,"507 Prudential Road, Suite 100B",http://www.lakeviewcommunitycapital.com/
"Lakota Fund, Inc., The",Loan Fund,Y,Kyle,SD,57752--034,"4241 BIA 2, Lakota Trade Center, Suite 103  P.O. Box 340",www.lakotafunds.org
Landmarks Community Capital Corporation,Loan Fund,N,Pittsburgh,PA,15219--118,"100 W. Station Square Drive, Ste. 400",http://www.landmarkscommunitycapital.org
Latino Economic Development Center,Loan Fund,N,Saint Paul,MN,55106,804 Margaret Street,http://www.ledcmn.org
Latino Economic Development Corporation (LEDC),Loan Fund,N,Washington,DC,20009--471,"1401 Columbia Rd, NW
Unit C-1",http://www.ledcmetro.org
Legacy Redevelopment Corporation,Loan Fund,N,Milwaukee,WI,53205--124,1536B W. North Ave,www.lrcmke.com
Lei Hoolaha,Loan Fund,Y,Kamuela,HI,96743--164,P. O. Box 1642,http://www.lhcdfi.org
Leviticus 25:23 Alternative Fund Inc,Loan Fund,N,Tarrytown,NY,10591,220 White Plains Road Suite 415,www.leviticusfund.org
"Life Asset, Inc.",Loan Fund,N,Washington,DC,20009--200,2448A 18th St NW,www.lifeasset.org
"LiftFund, Inc.",Loan Fund,N,San Antonio,TX,78210,2014 S. Hackberry St,www.liftfund.com
"Local Enterprise Assistance Fund, Inc.",Loan Fund,N,Boston,MA,02135,386 Western Ave.,www.leaffund.org
Local Initiatives Support Corporation,Loan Fund,N,New York,NY,10005,"28 Liberty Street
Floor 34",www.lisc.org
Locus Impact Fund,Loan Fund,N,Richmond,VA,23294--421,"7814 Carousel Lane, Suite 100",http://locusimpact.org
"Long Island Housing Partnership Community Development Financial Institution, Inc.",Loan Fund,N,Hauppauge,NY,11788--373,180 Oser Avenue  Suite 800,http://www.LIHP.org
"Louisiana Community Development Capital Fund, Inc.",Loan Fund,N,Baton Rouge,LA,70806--000,"Louisiana Community Development Capital Fund, Inc.  3313 Government Street",Non given
"Louisville Housing Opportunities and Micro-Enterprise Community Development Loan Fund, Inc., The",Loan Fund,N,LOUISVILLE,KY,40215,1126 Berry Blvd,http://www.lhomeky.org
Low Income Investment Fund,Loan Fund,N,San Francisco,CA,94105,"49 Stevenson Street, Suite 300",http://www.liifund.org
Lowell Community Loan Fund,Loan Fund,N,Lawrence,MA,01840--186,"50 Island Street, Suite 103",www.mccinvest.org
"Lower Brule Community Development Enterprise, LLC",Loan Fund,Y,Reston,VA,20190--474,"11710 Plaza America Drive
Suite 2000",Not Available
Magnet Lending Corporation,Loan Fund,N,Lansing,MI,48906,502 E. Cesar E Chavez Ave.,Non given
Main Street Launch,Loan Fund,N,Oakland,CA,94612--306,"2101 Webster Street , Suite 1200",www.mainstreetlaunch.org
"Maryland Capital Enterprises, Inc.",Loan Fund,N,Salisbury,MD,21804--523,314 Civic Avenue,www.marylandcapital.org
Massachusetts Housing Investment Corporation,Loan Fund,N,Boston,MA,02110--352,"21 Custom House Street, 8th Floor",http://www.mhic.com
"Mazaska Owecaso Otipi Financial, Inc",Loan Fund,Y,Pine Ridge,SD,57770--199,PO Box 1996,www.mazaskacdfi.org
McLennan Community Investment Fund,Loan Fund,N,Waco,TX,76701,"605 Austin Avenue
Suite 3",mccif.org
"MentorWorks Education Capital, Inc.",Loan Fund,N,Boston,MA,02110,"101 Arch Street, 8th Floor",mentorworks.com
Mercy Community Capital,Loan Fund,N,DENVER,CO,80202--492,1600 Broadway SUITE 2000,www.mercycommunitycapital.org
"Metro Community Development, Inc.",Loan Fund,N,Flint,MI,48503,1174 Robert T. Longway Blvd.,http://www.metrocommunitydevelopment.com
Metropolitan Consortium of Community Developers,Loan Fund,N,Minneapolis,MN,55407--153,3137 Chicago Ave So,http://www.mccdmn.org
Metropolitan Economic Development Association,Loan Fund,N,Minneapolis,MN,55411--263,1256 Penn Avenue North  Suite 4800,http://www.meda.net
"MHIC, LLC",Loan Fund,N,Boston,MA,02110--350,"21 Custom House Street,
8th Floor",www.mhic.com
MIAMI BAYSIDE FOUNDATION INC,Loan Fund,N,MIAMI,FL,33131--150,25 SE 2ND AVE STE 240,http://www.miamibaysidefoundation.org
"Miami-Dade Affordable Housing Foundation, Inc.",Loan Fund,N,Miami,FL,33126,"7855 NW 12 STREET, SUITE 102",mdahfi.org
Michigan Community Capital,Loan Fund,N,Lansing,MI,48906,"502 E. Cesar E. Chavez Avenue, Suite A",www.michigancommunitycapital.org
"Michigan Women's Foundation, The",Loan Fund,N,Detroit,MI,48207--264,1155 Brewery Park Blvd Suite 260,www.miwf.org
Micro Enterprise Services of Oregon,Loan Fund,N,Portland,OR,97212--111,4008 NE MLK Jr. Blvd,http://mesopdx.org
Midlands Housing Trust Fund,Loan Fund,N,Columbia,SC,29201,"1201 Main, Ste. 1480  Attn: Jeff Larimore",http://www.midlandshousing.org
"Midwest Housing Development Fund, Inc.",Loan Fund,N,Omaha,NE,68118--254,515 N 162nd Avenue  Suite 202,mhdfinc.com
Midwest Minnesota Community Development Corporation,Loan Fund,N,Detroit Lakes,MN,56501--303,"119 Graystone Plaza, Suite 100",www.mmcdc.com
Milwaukee Economic Development Corporation,Loan Fund,N,Milwaukee,WI,53202--361,"757 North Broadway, Suite 600",http://www.medconline.com
Mission Asset Fund,Loan Fund,N,San Francisco,CA,94110--500,3269 Mission Street,http://missionassetfund.org
Mission Community Loan Fund LLC,Loan Fund,N,San Francisco,CA,94110--189,"2301 Mission Street
Suite 301",http://medasf.org/programs/adelante-fund-mission-community-loans-small-business-loans-san-francisco/
Mni Sota Fund,Loan Fund,Y,Minneapolis,MN,55406,4009 E Lake St,mnisotafund.org
Montana Community Development Corporation,Loan Fund,N,Missoula,MT,59802--453,229 East Main,www.mofi.org
"Montana Homeownership Network, Inc. The",Loan Fund,Y,Great Falls,MT,59401--360,17 5th Street South,http://www.nwmt.org
"Mountain Association for Community Economic Development, Inc.",Loan Fund,N,Berea,KY,40403--151,433 Chestnut Street,http://www.mtassociation.org
"Mountain BizCapital, Inc. d/b/a Mountain BizWorks",Loan Fund,N,Asheville,NC,28801--279,153 South Lexington Avenue,www.mountainbizworks.org
Mountain Housing Opportunities Loan Fund,Loan Fund,N,Asheville,NC,28801--332,"64 Clingman Avenue, Suite 101",http://www.mtnhousing.org
Mvskoke Loan Fund,Loan Fund,Y,Okmulgee,OK,74447,P.O. Box 580,https://www.MvskokeFund.com
NACDC Financial Services Inc.,Loan Fund,Y,Browning,MT,59417--302,201 N. Piegan Street  P.O. Box 3029,www.nacdcfinancialservices.com
National Asian American Coalition,Loan Fund,N,Daly City,CA,94015--141,"318 Westlake Center, Suite 270",http://www.naac.org
National Association for Latino Community Asset Builders,Loan Fund,N,San Antonio,TX,78238,5404 Wurzbach Rd,www.nalcab.org
National Housing Trust Community Development Fund,Loan Fund,N,Washington,DC,20007--377,"1101 30th Street, NW  Suite 100A",http://www.nhtinc.org/nhtcdf.asp
"NATIONAL MINORITY SUPPLIER DEVELOPMENT COUNCIL BUSINESS CONSORTIUM FUND, INC.",Loan Fund,N,NEW YORK,NY,10105,"1345 Avenue of the Americas, 33rd floor",http://www.bcfcapital.com
Native American Development Corporation,Loan Fund,Y,Billings,MT,59101,17 N 26th St,www.nadc-nabn.org
Native Community Capital,Loan Fund,Y,Laguna,NM,87026--017,PO Box 176,www.nativecap.org
"Native Partnership for Housing, Inc.",Loan Fund,Y,Gallup,NM,87301--581,1664 South Second Street,www.npfh.org
"Native360 Loan Fund, Inc.",Loan Fund,Y,GRAND ISLAND,NE,68802,PO Box 5683,https://native360.org/
Navajo community Development Financial Institution Inc Non Profit,Loan Fund,Y,Window Rock,AZ,86515,PO Box 4919,http://www.navajocdfi.com
"NCRC Community Development Fund, Inc",Loan Fund,N,Washington,DC,20005--602,"740 15th St NW, Suite 400",www.ncrc.org
NDC Community Impact Loan Fund,Loan Fund,N,Boston,MA,02284--532,PO Box 845322,www.growamerica.org
Nebraska Enterprise Fund,Loan Fund,N,Oakland,NE,68045--113,330 N. Oakland Ave.,www.nebbiz.org
NeDA Centro de Finanzas LLC,Loan Fund,N,St. Paul,MN,55107,481 Wabasha Street S.,Non given
"NeighborGood Partners, Inc.",Loan Fund,N,Dover,DE,19904--272,363 Saulsbury Rd,http://www.neighborgoodpartners.org
Neighborhood Community Development Fund,Loan Fund,N,Pittsburgh,PA,15214--000,3923 Perrysville Avenue,www.ncd-fund.org
NEIGHBORHOOD DEVELOPMENT CENTER,Loan Fund,N,SAINT PAUL,MN,55104--509,625 UNIVERSITY AVE W,www.ndc-mn.org
Neighborhood Finance Corporation,Loan Fund,N,Des Moines,IA,50310,4908 Franklin Ave,http://www.neighborhoodfinance.org
Neighborhood Housing Finance Corporation,Loan Fund,N,Quincy,MA,02169--571,422 Washington Street,www.nhsmass.org
"Neighborhood Housing Services of Baltimore, Inc.",Loan Fund,N,Baltimore,MD,21218--603,"25 East 20th Street , Suite 170",http://nhsbaltimore.org
"Neighborhood Housing Services of Duluth, Inc.",Loan Fund,N,Duluth,MN,55805--187,12 East 4th St.,www.1roofhousing.org
"Neighborhood Housing Services of Greater Berks, Inc.",Loan Fund,N,Reading,PA,19601--339,213 N. 5th Street,http://www.nhsgb.org
"Neighborhood Housing Services of New York City, Inc.",Loan Fund,N,New York,NY,10018--649,"306 West 37 Street, Suite 1101",www.nhsnyc.org
"Neighborhood Housing Services of Orange County, Inc.",Loan Fund,N,Orange,CA,92867--483,1748 W. Katella Avenue Suite 202,www.nwoc.org
Neighborhood Housing Services of Rochester Inc,Loan Fund,N,ROCHESTER,NY,14620--133,570 SOUTH AVENUE,www.ncpny.org
"Neighborhood Housing Services of San Antonio, Inc.",Loan Fund,N,San Antonio,TX,78210--392,851 Steves Avenue,http://nhsofsa.org
"Neighborhood Housing Services of South Florida, Inc.",Loan Fund,N,Miami,FL,33128--101,300 NW 12th Avenue,www.nhssf.org
"NEIGHBORHOOD HOUSING SERVICES OF THE INLAND EMPIRE, INC.",Loan Fund,N,SAN BERNARDINO,CA,92408,"1845 Business Center Drive, Suite 120",http://www.nhsie.org
"Neighborhood Housing Services of Toledo, Inc.",Loan Fund,N,Toledo,OH,43605--211,P. O. Box 8125,http://nwtoledo.org
"Neighborhood Impact Investment Fund, Inc.",Loan Fund,N,Baltimore,MD,21211,"PO Box 354
711 West 40th Street, Suite 153",https://www.baltimoreniif.org
"Neighborhood Lending Partners of Florida, Inc.",Loan Fund,N,Tampa,FL,33607--250,3615 West Spruce Street,www.nlp-inc.com
"Neighborhood Lending Services, Inc.",Loan Fund,N,Chicago,IL,60607,"850 W Jackson Blvd., Suite 500",www.nhschicago.org
"Neighborhood Lending Services, LLC",Loan Fund,N,Deadwood,SD,57732--100,795 Main Street,http://neighborworksdhr.org
"Neighborhood Partnership Housing Services, Inc.",Loan Fund,N,Rancho Cucamonga,CA,91730--600,9551 Pittsburgh Ave.,http://nphsinc.org
"Neighborhood Self-employment Initiative, Inc.",Loan Fund,N,INDIANAPOLIS,IN,46204--540,111 MONUMENT CIRCLE Suite 1950,Non given
NeighborWorks Capital,Loan Fund,N,Silver Spring,MD,20910--560,8484 Georgia Ave  Suite 330,www.neighborworkscapital.org
Network for Oregon Affordable Housing,Loan Fund,N,Portland,OR,97201--516,"1750 S. Harbor Way, Suite 245",http://noah-housing.org
"New Hampshire Community Loan Fund, Inc.",Loan Fund,N,Concord,NH,03301--374,7 Wall Street,www.communityloanfund.org
New Hope Community Capital Inc.,Loan Fund,N,Boston,MA,02116--624,185 Dartmouth Street,http://www.newhopehousinginc.org/
NEW MEXICO COMMUNITY DEVELOPMENT LOAN FUND,Loan Fund,N,ALBUQUERQUE,NM,87103--070,P.O. BOX 705,www.loanfund.org
New Roots Fund,Loan Fund,N,Seattle,WA,98002,515 B Street NE,http://dioceserroseattle.org
"NEWCORP, INC.",Loan Fund,N,New Orleans,LA,70119--000,2533 Columbus Street Suite 204,www.newcorpinc.com
"NewTown Loans, LLC",Loan Fund,N,Macon,GA,31201,555 Poplar Street,www.newtownmacon.com/loans
"NewWest Community Capital, Inc.",Loan Fund,N,Boise,ID,83702,"950 W. Bannock Street, Suite 1100",www.newwestcapital.org
"NHS Lending, Inc.",Loan Fund,N,Boise,ID,83707--222,P.O. Box 8223,www.nwboise.org
NHS Neighborhood Lending Services,Loan Fund,N,Los Angeles,CA,90010--330,"3926 Wilshire Blvd,  Ste. 200",www.nhslacounty.org
Nimiipuu Community Development Fund,Loan Fund,Y,Lapwai,ID,83540,95 Agency Rd  PO Box 114,www.nimiipuufund.org
Nixyaawii Community Financial Services,Loan Fund,Y,Pendleton,OR,97801,46440 Kusi Rd A-3,Nixyaawii-cdfi.org
Nogales Community Development Corporation,Loan Fund,N,Nogales,AZ,85628--042,Po Box 421,http://www.nogalescdc.org
Nonprofit Finance Fund,Loan Fund,N,New York,NY,10004--265,"5 Hanover Square, 9th FL",www.nff.org
"North Alabama Revolving Loan Fund, LLC",Loan Fund,N,Huntsville,AL,35805,2808 6th Street SW,http://www.neighborhoodconcepts.org
North Central Massachusetts Development Corporation,Loan Fund,N,Fitchburg,MA,01420--690,860 South Street,http://northcentralmassonline.com
North Philadelphia Financial Partnership,Loan Fund,N,Philadelphia,PA,19132--276,"1300 W. Lehigh Avenue, Suite 100",www.npfp.org
"Northeast Entrepreneur Fund, Inc.",Loan Fund,N,Duluth,MN,55802--197,"202 West Superior Street
Suite 311",http://www.entrepreneurfund.org
Northeast South Dakota Economic Corporation (NESDEC),Loan Fund,N,Sisseton,SD,57262--190,104 Ash Street East,www.growsd.org
Northern Community Investment Corporation,Loan Fund,N,St. Johnsbury,VT,05819--279,"51 Depot Square, Suite #2",http://www.ncic.org
Northern Great Lakes Initiatives,Loan Fund,N,Marquette,MI,49855,101 W. Washington St. Suite 9,www.northerninitiatives.org
Northern Maine Development Commission,Loan Fund,N,Caribou,ME,04736--410,"11 West Presque Isle Road
PO Box 779",www.nmdc.org
"Northern Shores Community Development, Inc.",Loan Fund,Y,Petoskey,MI,49770,"2200 East Mitchell Road, Unit E",nscdi.org
Northland Foundation,Loan Fund,N,Duluth,MN,55802--194,"202 West Superior Street, Suite 800",http://www.northlandfdn.org
Northwest Access Fund,Loan Fund,N,Shoreline,WA,98155,PO Box 55759,http://www.nwaccessfund.org
Northwest Minnesota Foundation,Loan Fund,N,Bemidji,MN,56601--311,201 3rd Street NW,http://www.nwmf.org
Northwest Native Development Fund,Loan Fund,Y,Coulee Dam,WA,99116--015,PO Box 154,www.thenndf.org
Northwest Side Community Development Corporation,Loan Fund,N,Milwaukee,WI,53216--182,"4201 North 27th Street, 7th Floor  Century City Tower",http://www.nwscdc.org
NYBDC Local Development Corporation,Loan Fund,N,Albany,NY,12207--153,50 Beaver Street,http://www.pursuitlending.com
Office of Rural and Farmworker Housing,Loan Fund,N,Yakima,WA,98902--296,"1400 Summitview Avenue, #203",http://www.orfh.org
Ohio Capital Finance Corporation,Loan Fund,N,Columbus,OH,43215--352,"88 East Broad Street,  Suite 1800",Non given
Oklahoma Assistive Technology Foundation,Loan Fund,N,Stillwater,OK,74074--453,601 S. Washington  #282,www.okatfoundation.org
"OMAHA 100, INC",Loan Fund,N,OMAHA,NE,68111--387,2401 LAKE STREET,www.Omaha100.org
"Opening Doors, Inc.",Loan Fund,N,Sacramento,CA,95825--854,"1111 Howe Ave., Suite 125",www.openingdoorsinc.org
"Oportun, Inc.",Loan Fund,N,San Carlos,CA,94070,2 Circle Star Way,https://oportun.com/
Opportunity Finance Network,Loan Fund,N,Philadelphia,PA,19109--102,"123 S. Broad Street
Suite 1930",www.ofn.org
Opportunity Resource Fund,Loan Fund,N,Lansing,MI,48912--231,330 Marshall Street  Suite 105,http://www.oppfund.org
OTR Fund I LLC,Loan Fund,N,Irving,TX,75061--562,1500 N. Loop 12,www.ontheroadlending.org
"Our Microlending, Llc",Loan Fund,N,Miami,FL,33145,3191 Coral Way Suite 109,http://www.ourmicrolending.com
Oweesta Corporation,Loan Fund,Y,Longmont,CO,80501--110,2432 Main St,www.oweesta.org
PACE Finance Corporation,Loan Fund,N,Los Angeles,CA,90017--565,1055 Wilshire Blvd.  Suite 1475,www.pacela.org
"Pacific Coast Regional, Small Business Development Corporation",Loan Fund,N,Los Angeles,CA,90010--141,"3255 Wilshire Blvd., Suite 1501",http://www.pcrcorp.org
"Pacific Community Ventures, Inc.",Loan Fund,N,Oakland,CA,94612,"1714 Franklin St, Suite 100-347",Non given
"Pacific Northwest Tribal Lending, a Community Development Financial Institution",Loan Fund,Y,Bellingham,WA,98225--295,"12 Bellwether Way
Suite 224",www.lummicdfi.org
Palm Beach County Black Business Investment Corporation,Loan Fund,N,West Palm Beach,FL,33409,"380 Columbia Drive, Suite 100",www.pbcbbic.biz
"Partner Community Capital, Inc.",Loan Fund,N,Charles Town,WV,25414,P.O. Box 839,www.partnercapital.org
"Partners for the Common Good, Inc.",Loan Fund,N,Washington,DC,20005--289,"1201 15TH St NW
Suite 200",www.pcgloanfund.org
"PathStone Enterprise Center, Inc.",Loan Fund,N,Rochester,NY,14607--191,400 East Avenue,http://www.pseci.org
Pennsylvania Assistive Technology Foundation,Loan Fund,N,King of Prussia,PA,19406--120,1004 West 9th Avenue,http://www.patf.us
People Incorporated Financial Services,Loan Fund,N,Abingdon,VA,24210--470,1173 West Main Street,www.peopleinc.net
People Trust,Loan Fund,N,Little Rock,AR,72209,5300 West 65th Street,www.providingequalopportunities.org
PeopleFund,Loan Fund,N,Austin,TX,78702--150,"2921 E. 17th Street  Building D, Suite 1",www.peoplefund.org
Peoples Opportunity Fund,Loan Fund,N,San Luis Obispo,CA,93401,1060 Kendall Road,http://www.pshhc.org
PIDC Community Capital,Loan Fund,N,Philadelphia,PA,19102--211,1500 Market Street  Suite 3500 West,http://www.PIDCphila.com
Piedmont Business Capital,Loan Fund,N,Greensboro,NC,27406--220,"1451 S. Elm-Eugene Street
Suite 2121",www.piedmontbusinesscapital.org
Piedmont Housing Alliance,Loan Fund,N,Charlottesville,VA,22901,682 Berkmar Circle,www.piedmonthousingalliance.org
"Pocatello Neighborhood Housing Services, Inc.",Loan Fund,N,Pocatello,ID,83204--114,P.O. Box 1146,http://www.nwpocatello.org
Ponce Neighborhood Housing Services,Loan Fund,N,Ponce,PR,00733--022,Calle Mendez Vigo #57,www.facebook.poncenhs/Ponce Neighborhood Housing Services
Portland Housing Center,Loan Fund,N,Portland,OR,97232--255,3233 NE Sandy Blvd,www.portlandhousingcenter.org
"Poverty Solutions, Inc.",Loan Fund,N,Torrance,CA,90501,370 Amapola Ave. Suite 200A,www.povsol.com
"PPEP Microbusiness and Housing Development Corporation, Inc.",Loan Fund,N,Tucson,AZ,85713--507,802 E 46th Street,http://www.pmhdc.net/
"Prestamos CDFI, LLC",Loan Fund,N,Phoenix,AZ,85034--404,1024 E. Buckeye Road   Suite 270,prestamosloans.com
Prince Georges Financial Services Corporation,Loan Fund,N,Largo,MD,20774--546,1801 McCormick Drive  Suite 300,www.fscfirst.com
"Progress Fund, The",Loan Fund,N,Greensburg,PA,15601--221,425 West Pittsburgh Street,www.progressfund.org
Propel Nonprofits,Loan Fund,N,Minneapolis,MN,55414--103,"1 SE Main ST, STE 600",www.propelnonprofits.org
Prosperus Detroit Micro Lending,Loan Fund,N,Detroit,MI,48202,"440 Burroughs Street, Suite 360",www.prosperusdetroit.org
Providence Revolving Fund,Loan Fund,N,Providence,RI,02903--351,372 West Fountain Street,http://www.revolvingfund.org
Puerto Rico NHS,Loan Fund,N,SAN JUAN,PR,00908--392,PO BOX 13926 San Juan Puerto Rico,Non given
Quaboag Valley Business Assistance Corporation,Loan Fund,N,Ware,MA,01082--135,"23 West Main Street, Suite #1",http://www.qvcdc.org
Rainier Valley Community Development Fund,Loan Fund,N,Seattle,WA,98118--354,"6951 Martin Luther King Jr Way S, Ste 225",http://www.rvcdf.org
"Raza Development Fund, Inc.",Loan Fund,N,Phoenix,AZ,85040--304,410 E Southern Ave,www.razafund.org
"Redbud Financial Alternatives, Inc.",Loan Fund,N,Hazard,KY,41702,PO Box 7363,https://www.redbudfinancialalternatives.org/
REDF Impact Investing Fund,Loan Fund,N,San Francisco,CA,94103,"785 Market Street, Suite 1200",https://redf.org/what-we-do/impact-lending/
"Reinvestment Fund, Inc., The",Loan Fund,N,Philadelphia,PA,19103--390,1700 Market Street  19th Floor,http://www.reinvestment.com
"Renaissance Community Loan Fund, Inc.",Loan Fund,N,Gulfport,MS,39503--601,8917 Lorraine Road,www.rclfms.com
Renaissance Economic Development Corporation,Loan Fund,N,New York,NY,10002--530,"2 Allen Street, 7th Floor",http://www.renaissance-ny.org/
Rende Progress Capital,Loan Fund,N,East Lansing,MI,48823--498,"2843 E. Grand River, #132",https://www.rendeprogresscapital.com/
"Resident Ownership Capital, LLC dba ROC USA Capital",Loan Fund,N,Concord,NH,03301--532,6 Loudon Road  Suite 501,http://www.rocusa.org
Rio Grande Valley Multibank Corporation,Loan Fund,N,Brownsville,TX,78520--516,901 East Levee,www.rgvmultibank.com
Ripple Effect Entrepreneurs Fund,Loan Fund,N,Lakewood,NJ,08701,"1750 Cedarbridge Avenue
Suite 3",www.njreef.org
Rising Tide Community Loan Fund,Loan Fund,N,Bethlehem,PA,18015--210,1337 E 5th St.,www.therisingtide.org
River City Capital Investment Corporation,Loan Fund,N,Memphis,TN,38103--222,119 Court  Suite 100,http://rivercitycapital.org/
Rockford Community Investment Fund,Loan Fund,N,Rockford,IL,61101,"120 W. State St., 306",Non given
Rockingham Economic Development Corp,Loan Fund,N,Raymond,NH,03077--232,57 Main Street,http://www.redc.com
Rocky Mountain Community Reinvestment Corporation,Loan Fund,N,Salt Lake City,UT,84107,64 East Winchester Street Suite 330,www.rmcrc.org
Rocky Mountain MicroFinance Institute,Loan Fund,N,Denver,CO,80204--813,PO Box 48138,http://www.rmmfi.org
Rural Community Assistance Corporation,Loan Fund,N,West Sacramento,CA,95691--501,3120 Freeboard Drive  Suite 201,www.rcac.org
"Rural Electric Economic Development, Inc.",Loan Fund,N,Madison,SD,57042--022,211 South Harth Avenue  PO Box 227,http://reedfund.coop
Rural Nevada Development Corporation,Loan Fund,N,Ely,NV,89301--164,1320 E Aultman Street,http://www.rndcnv.org
"Rutland West Neighborhood Housing Services, Inc.",Loan Fund,N,West Rutland,VT,05777--044,110 Marble St,nwwvt.org
Sabre Finance d/b/a VentureSouth,Loan Fund,N,Birmingham,AL,35203--186,"2 20th Street North, Suite 1150",http://www.sabrefinance.org
"Sacramento Neighborhood Housing Services, Inc.",Loan Fund,N,Sacramento,CA,95817--310,"2411 Alhambra Blvd, Ste. 200",http://www.nwsacramento.org
Salas & Company,Loan Fund,N,Los Angeles,CA,90014--225,"309 E 8th Street
Suite 601",https://www.caminofinancial.com/
"Salt Lake Neighborhood Housing Services, Inc.",Loan Fund,N,Salt Lake,UT,84116,622 West 500 North,www.nwsaltlake.org
Salt River Financial Services Institution,Loan Fund,Y,Scottsdale,AZ,85256,10005 E Osborn Rd,http://www.srfsi.com
San Carlos Apache Tribe Relending Enterprise,Loan Fund,Y,Peridot,AZ,85542--079,P.O. Box 790,Not Available
"San Francisco Housing Accelerator Fund, The",Loan Fund,N,San Francisco,CA,94104,"564 Market St, Suite 225",www.sfhaf.org
San Luis Obispo County Housing Trust Fund,Loan Fund,N,San Luis Obispo,CA,93401--731,"71 Zaca Lane, Suite 130",http://www.slochtf.org
Santa Fe Community Housing Trust,Loan Fund,N,Santa Fe,NM,87592,PO Box 29237,www.housingtrustonline.org
Seattle Economic Development Fund d/b/a Business Impact NW (BIN),Loan Fund,N,Tukwila,WA,98168,"12720 Gateway Dr, Suite 207",www.businessimpactnw.org
Self-Help Ventures Fund,Loan Fund,N,Durham,NC,27702--361,P.O. Box 3619,www.self-help.org
Seneca Nation of Indians Economic Development Company,Loan Fund,Y,Salamanca,NY,14779--159,90 Ohi:yo Way  PO Box 437,http://www.sniedc.org
"Sequoyah Fund Inc., The",Loan Fund,Y,Cherokee,NC,28719--120,PO Box 1200,http://www.sequoyahfund.org
Shared Capital Cooperative,Loan Fund,N,Saint Paul,MN,55114--176,"2388 University Ave W, Suite 300",www.sharedcapital.coop
Small Business Assistance Corporation,Loan Fund,N,Savannah,GA,31401--449,"111. E. Liberty Street, suite 100",www.sbacsav.com
SNAP Financial Access,Loan Fund,N,Spokane,WA,99224--520,3102 W. Whistalks Way,https://snapfinancialaccess.org/
Solar and Energy Loan Fund of St. Lucie County Inc.,Loan Fund,N,Fort Pierce,FL,34950--485,2400 Rhode Island Avenue,http://solarenergyloanfund.org
"Solitas House, Inc.",Loan Fund,N,Tampa,FL,33680,PO Box 310257,www.solitashouse.com
South Carolina Community Loan Fund,Loan Fund,N,Charleston,SC,29407--574,1051-A Gardner Road,http://www.sccommunityloanfund.org
South Eastern Development Foundation,Loan Fund,N,Sioux Falls,SD,57104--201,500 N Western Avenue  Suite 100,http://www.secog.org
South Eastern Economic Development Corporation,Loan Fund,N,Taunton,MA,02780--271,80 Dean Street,http://www.seedcorp.com
Southeast Community Capital Corporation DBA Pathway Lending,Loan Fund,N,Nashville,TN,37228--160,201 Venture Circle,www.pathwaylending.org
SOUTHEAST KENTUCKY ECONOMIC DEVELOPMENT CORPORATION INC,Loan Fund,N,SOMERSET,KY,42501--290,2292 SOUTH HIGHWAY 27,https://skedcorp.com
"Southeast Rural Community Assistance Project, Inc.",Loan Fund,N,Roanoke,VA,24016--362,347 Campbell Avenue,http://www.sercap.org
Southern Bancorp Capital Partners,Loan Fund,N,Little Rock,AR,72211--350,"400 Hardin Road, Suite 100",www.southernpartners.org
Southern Colorado Community Lending LLC,Loan Fund,N,Pueblo,CO,81004,1241 E Routt Ave.,Non given
Southern Maine Finance Agency,Loan Fund,N,Biddeford,ME,04005--945,"20 Pomerleau Street, Ste 300",www.smfamaine.org
"Southern Mutual Financial Services, Inc.",Loan Fund,N,New Iberia,LA,70563--313,3602 Old Jeanerette Road,www.southernmutualhelp.org
"Southwest Georgia United Empowerment Zone, Inc.",Loan Fund,N,Cordele,GA,31015--421,123 South 7th Street,www.swgau.org
Springboard CDFI,Loan Fund,N,National City,CA,91950,"2140 Hoover Avenue, Suite 115",www.springboard.org
"Springfield Neighborhood Housing Services, Inc.",Loan Fund,N,Springfield,MA,01109--312,111 Wilbraham Road,www.springfieldnhs.org
"Spruce Root, Inc.",Loan Fund,Y,Juneau,AK,99801--124,1 Sealaska Plaza Suite 400,www.spruceroot.org
Strafford Economic Development Corporation,Loan Fund,N,Dover,NH,03820--383,"Suite 101, Cocheco Falls Millworks  100 Main Street",http://www.sedcnh.org
Suazo Business Center,Loan Fund,N,Salt Lake City,UT,84104,960 W 1700 S,www.suazocenter.org
Sustainable Communities Fund,Loan Fund,N,Los Angeles,CA,90024,1281 Westwood Blvd. Ste. 200,www.tscfund.org
Sustainable Neighborhoods LLC,Loan Fund,N,New York,NY,10004--200,"55 Broad Street, 10th Floor",http://cnycn.org/
Sykes Equity LLC d/b/a Private Leverage,Loan Fund,N,Houston,TX,77002,"2000 Crawford St, Suite 840",PrivateLeverage.com
Taala Fund,Loan Fund,Y,Taholah,WA,98587--070,P.O. Box 702,www.taalafund.org
"TCHFH Lending, Inc.",Loan Fund,N,St. Paul,MN,55104--342,1954 University Ave W,http://home.tchabitat.org/tchfh-lending-inc
Technical Assistance Corporation,Loan Fund,N,St Louis,MO,63103--183,1627 Washington Ave,www.risecdfi.org
Tennessee Rural Development Fund LLC,Loan Fund,N,Cookeville,TN,38501,"1227 N Washington Ave., Ste 107",www.tnrdf.com
Texas Community Capital,Loan Fund,N,Austin,TX,78702,"1910 E. MLK, Jr. Blvd.",tccapital.org
"Texas Mezzanine Fund, Inc.",Loan Fund,N,Dallas,TX,75203,320 S.  R.L. Thornton Freeway  Suite 110,www.tmfund.com
The Affordable Housing Trust for Columbus and Franklin County,Loan Fund,N,Columbus,OH,43215,"175 South Third Street
Suite 1250",http://www.hztrust.org
The Capital Good Fund,Loan Fund,N,Providence,RI,02908,333 Smith St,http://www.capitalgoodfund.org
"The Center for Rural Health Development, Inc.",Loan Fund,N,Hurricane,WV,25526--927,75 Chase Drive,www.wvruralhealth.org
"The Cherokee Nation d/b/a Cherokee Nation Economic Development Trust Authority, Inc",Loan Fund,Y,Tahlequah,OK,74465--166,Post Office Box 1669,Non given
"The Community Development Trust, Inc.",Loan Fund,N,New York,NY,10018--770,1350 Broadway  Suite 700,www.cdt.biz
"The Community Economic Development Fund Foundation, Inc.",Loan Fund,N,Meriden,CT,06450,965 East Main Street,www.cedf.com
"The Housing Fund, Inc.",Loan Fund,N,Madison,TN,37116,P.O. Box 657,http://www.thehousingfund.org
"The Housing Partnership Network, Inc.",Loan Fund,N,Boston,MA,02108--261,One Washington Mall   12th Floor,http://www.housingpartnership.net
"The Sunlight Loan Fund, LLC",Loan Fund,N,Minneapolis,MN,55419--207,5500 Nicollet Avenue #19590,wildflowerschools.org
The Urban Empowerment Fund,Loan Fund,N,New York,NY,10005--170,"80 Pine Street
9th floor",Not Available
"The Working World, Inc. dba Seed Commons",Loan Fund,N,New York,NY,10003,"228 Park Avenue S, Suite 65768",Non given
Thread Capital,Loan Fund,N,Raleigh,NC,27610--291,4021 Carya Drive,www.threadcap.org
Three Roots Capital,Loan Fund,N,Knoxville,TN,37934,12640 Kingston Pike,http://www.3rootscapital.org
Tigua Community Development Corporation,Loan Fund,Y,El Paso,TX,79907,9180 Socorro Road,Non given
Tiwa Lending Services,Loan Fund,Y,Isleta,NM,87022--076,P.O. Box 902,tiwalending.org
TMCCommunityCapital,Loan Fund,N,Oakland,CA,94612,"1611 Telegraph Ave, Suite 504",https://www.tmccommunitycapital.org
TREC Community Investors,Loan Fund,N,Dallas,TX,75201--701,3100 McKinnon Street  Suite 1150,http://www.recouncil.com
Trenton Business Assistance Corporation,Loan Fund,N,Mercerville,NJ,08619--163,3111 Quakerbridege Rd. - 2 floor,www.rbacloan.com
Tricolor Auto Acceptance,Loan Fund,N,Irving,TX,75039,"6021 Connection Drive, 4th Floor",Non given
Triple Bottom Line Foundation,Loan Fund,N,Lakewood,CO,80214,7400 W 14th Ave,www.tblfund.org
"TRP Lending, LLC",Loan Fund,N,Chicago,IL,60608--272,1805 S Paulina St.,http://fullcirclehomes.org
True Access Capital Corporation,Loan Fund,N,Wilmington,DE,19801--165,100 West 10th St.  Suite 300,http://www.trueaccescapital.org
"TruFund Financial Services, Inc.",Loan Fund,N,New York,NY,10018--232,"39 West 37th Street, 7th Floor",http://www.trufund.org
Tulsa Economic Development Corporation,Loan Fund,N,Tulsa,OK,74103--342,"125 W 3rd St, 2nd Fl",www.TEDCnet.com
Union County Economic Development Corporation,Loan Fund,N,Cranford,NJ,07016--293,75 Chestnut Street,http://www.ucedc.com
"UP Community Fund, LLC",Loan Fund,N,Charlotte,NC,28208,2320 West Morehead St.,www.upcommunityfund.com
UP Community Impact Fund Corp.,Loan Fund,N,Houston,TX,77011--136,"6501 Navigation Boulevard
     Suite E2",Non given
UPI LOAN FUND,Loan Fund,N,Phoenix,AZ,85034,"1301 East Washington Street, Suite 104",upiloanfund.us
UPPER MANHATTAN EMPOWERMENT ZONE DEVELOPMENT CORPORATION,Loan Fund,N,New York,NY,10027--499,"55 West 125th Street, 11th Floor",http://www.umez.org
Urban Strategies Inc,Loan Fund,N,Saint Louis,MO,63102,"100 N. Broadway
Suite 1110",www.usi-cdfi.org
Utah Microenterprise Loan Fund (UMLF),Loan Fund,N,Salt Lake City,UT,84115--493,154 East Ford Avenue #A,utahmicroloanfund.org
"Utica Industrial Development Corporation, Inc",Loan Fund,N,Rome,NY,13441,584 Phoenix Drive,Non given
"Utica Neighborhood Housing Services, Inc.",Loan Fund,N,Utica,NY,13501--473,1611 Genesee Street,http://www.thehomeownershipcenter.org
"Valley Economic Development Partners, Inc.",Loan Fund,N,Youngstown,OH,44505--100,4319 Belmont Ave.,www.valleyedp.com
Valley Small Business Development Corporation,Loan Fund,N,Fresno,CA,93711--076,7035 N. Fruit Avenue,http://VSBDC.com
Ventana Fund,Loan Fund,N,Albuquerque,NM,87125,P.O. Box 25483,www.ventanafund.org
Ventura County Community Development Corporation,Loan Fund,N,OXNARD,CA,93030,2231 Sturgis Road  Suite A,http://www.vccdc.org
Venture North Funding & Development,Loan Fund,N,Traverse City,MI,49684,202 E Grandview Parkway,www.venturenorthfunding.org
Ventures,Loan Fund,N,Seattle,WA,98144,"2100 24th Avenue S., Suite 380",www.venturesnonprofit.org
"Vermont Community Loan Fund, Inc.",Loan Fund,N,Montpelier,VT,05601--082,"7 School Street, PO Box 827",www.investinvermont.org
"Vermont-Slauson LDC, Inc.",Loan Fund,N,Los Angeles,CA,90044--371,1130 West Slauson Avenue,http://www.vsedc.org
Village Capital Corporation,Loan Fund,N,Cleveland,OH,44104--000,11327 Shaker Boulevard  Suite 500W,www.clevelandnp.org
"Virginia Community Development Fund, Inc., The",Loan Fund,N,Richmond,VA,23220--215,1840 West Broad Street  Suite 200,http://www.vacdc.org
Vital Healthcare Capital,Loan Fund,N,New York,NY,10004--278,"85 Broad Street, 18th Floor",www.VitalCap.org
VSJF Flexible Capital Fund L3C,Loan Fund,N,Montpelier,VT,05602--450,3 Pitkin Court  Suite 301E,www.flexiblecapitalfund.com
Washington Area Community Investment Fund,Loan Fund,N,Washington,DC,20018--283,2012 Rhode Island Ave NE,http://www.wacif.org
Washington Community Reinvestment Association,Loan Fund,N,Seattle,WA,98101--310,"1200 Fifth Avenue, Suite 1406",www.wcra.net
"West Central Development Corporation, dba Anchor Financial Services",Loan Fund,N,Perrysburg,OH,43551--526,955 Commerce Drive;  Suite A,www.anchorsba.com
"Western Reserve Community Fund, Inc",Loan Fund,N,Akron,OH,44308,"c/o Development Finance Authority of Summit County
One Cascade Plaza, Suite 1700",Non given
Westminster Economic Development Initiative Inc,Loan Fund,N,Buffalo,NY,14213--114,436 Grant St,http://www.wedibuffalo.org
White Earth Investment Initiative,Loan Fund,Y,Ogema,MN,56569--003,407 Main St. E.  P.O. Box 38,www.weii.website
"William Mann, Jr. Community Development Corporation",Loan Fund,N,Fort Worth,TX,76104,1150 South Freeway  Suite 118,www.wmcdc.com
Wind River Development Fund,Loan Fund,Y,Fort Washakie,WY,82514--066,P.O. Box 661,http://www.wrdf.org
"Wisconsin Native Loan Fund, Inc.",Loan Fund,Y,Lac du Flambeau,WI,54538--058,P.O. Box 580,www.winlf.org
Wisconsin Women's Business Initiative Corporation,Loan Fund,N,Milwaukee,WI,53212--391,1533 N RiverCenter Drive,www.wwbic.com
Women's Economic Self-Sufficiency Team,Loan Fund,N,Albuquerque,NM,87102--233,"609 Broadway, NE",http://www.wesst.org
Womens Economic Ventures,Loan Fund,N,Santa Barbara,CA,93101--720,"21 E. Canon Perdido, Suite 301",http://www.wevonline.org
Women's Opportunities Resource Center,Loan Fund,N,Philadelphia,PA,19103,2010 Chestnut Street,http://worc-pa.org
"Women's Venture Fund, Inc.",Loan Fund,N,New York,NY,10010,"902 Broadway, 6 Fl",www.womensventurefund.org
Womenventure,Loan Fund,N,SAINT PAUL,MN,55102--461,165 WESTERN AVE N STE 8,http://womenventure.org
Woodland Financial Partners Inc,Loan Fund,Y,Keshena,WI,54135--999,N559 Library Road  P.O. Box 790,www.woodlandfinancial.org
Woodlands Community Lenders,Loan Fund,N,Elkins,WV,26241,"316 Railroad Avenue
Suite 310",http://www.woodlandswv.org
"Worcester Community Housing Resources, Inc.",Loan Fund,N,Worcester,MA,01609--322,"11 Pleasant Street, Suite 300",http://www.wchr.org
Working Solutions CDFI,Loan Fund,N,San Francisco,CA,94102,"870 Market Street, Suite 677",http://www.workingsolutions.org
