Organization Name,Number,City,State,Zipcode,Address,Organization Website,
Village Capital Corporation,31717,Cleveland,OH,44104--000,11327 Shaker Boulevard  Suite 500W,www.clevelandnp.org,
"Change Lending, LLC",29767,Anaheim,CA,92808,"175 N. Riverview Drive, suite D",www.changemtg.com,
"Lakeview Community Capital, LLC",21176,Horsham,PA,19044,"507 Prudential Road, Suite 100B",http://www.lakeviewcommunitycapital.com/,
"Champions Funding, LLC",2305,Gilbert,AZ,85297,"365 E Germann Rd
Suite 140",www.champstpo.com,
"Homewise, Inc.",1741,Santa Fe,NM,87507--311,"1301 Siler Road, Bldg D",www.homewise.org,
Neighborhood Finance Corporation,1142,Des Moines,IA,50310,4908 Franklin Ave,http://www.neighborhoodfinance.org,
"Home Headquarters, Inc.",717,Syracuse,NY,13204--242,"538 Erie Blvd., West,  Suite 100",www.homehq.org,
HomeSight,464,Seattle,WA,98118--192,5117 Rainier Avenue South,www.homesightwa.org,
CHN Housing Capital,320,Cleveland,OH,44114--444,"2999 Payne Avenue, Ste. 134",https://chnhousingcapital.org/,
"New Hampshire Community Loan Fund, Inc.",285,Concord,NH,03301--374,7 Wall Street,www.communityloanfund.org,
"Housing Development Fund, Inc.",275,Stamford,CT,06901--169,100 Prospect Street  Suite 100,www.hdfconnects.org,
Sustainable Neighborhoods LLC,261,New York,NY,10004--200,"55 Broad Street, 10th Floor",http://cnycn.org/,
Impact Development Fund,250,Loveland,CO,80537--487,200 E. 7th St. #412,http://www.impactdf.org,
"Great Rivers Community Capital, Incorporated",243,St. Louis,MO,63106--164,"1023 N. Grand Blvd.	",http://www.justinepetersen.org/small_business/great_rivers_community_capital1/,
Opportunity Resource Fund,228,Lansing,MI,48912--231,330 Marshall Street  Suite 105,http://www.oppfund.org,
Community Investment Corporation,227,Chicago,IL,60606--610,222 South Riverside Plaza  Suite 380,www.cicchicago.com,
"Prestamos CDFI, LLC",216,Phoenix,AZ,85034--404,1024 E. Buckeye Road   Suite 270,prestamosloans.com,
Lowell Community Loan Fund,198,Lawrence,MA,01840--186,"50 Island Street, Suite 103",www.mccinvest.org,
"Northeast Entrepreneur Fund, Inc.",197,Duluth,MN,55802--197,"202 West Superior Street
Suite 311",http://www.entrepreneurfund.org,
"TCHFH Lending, Inc.",196,St. Paul,MN,55104--342,1954 University Ave W,http://home.tchabitat.org/tchfh-lending-inc,
Neighborhood Housing Finance Corporation,171,Quincy,MA,02169--571,422 Washington Street,www.nhsmass.org,
"Community Housing Capital, Inc.",159,Decatur,GA,30030--240,402 E. Howard Avenue,CommunityHousingCapital.org,
"The Housing Fund, Inc.",156,Madison,TN,37116,P.O. Box 657,http://www.thehousingfund.org,
Local Initiatives Support Corporation,156,New York,NY,10005,"28 Liberty Street
Floor 34",www.lisc.org,
Community First Fund,149,Lancaster,PA,17608--052,P.O. Box 524,www.communityfirstfund.org,
Century Housing Corporation,147,Culver City,CA,90230--761,1000 Corporate Pointe,http://www.centuryhousing.org,
Capital Plus Financial,146,Bedford,TX,76021,2247 Central Dr.,www.capitalplusfin.com,
Massachusetts Housing Investment Corporation,144,Boston,MA,02110--352,"21 Custom House Street, 8th Floor",http://www.mhic.com,
Capital Impact Partners,122,Arlington,VA,22202--416,"1400 Crystal Drive, Suite 500",www.capitalimpact.org,
"Colorado Enterprise Fund, Inc.",117,Denver,CO,80203--116,"1888 Sherman Street, Suite 530",http://coloradoenterprisefund.org,
"Renaissance Community Loan Fund, Inc.",113,Gulfport,MS,39503--601,8917 Lorraine Road,www.rclfms.com,
"Neighborhood Lending Services, Inc.",110,Chicago,IL,60607,"850 W Jackson Blvd., Suite 500",www.nhschicago.org,
Cinnaire Lending Corporation,105,Chicago,IL,60606--241,225 West Washington Street  Suite 1350,www.cinnaire.com,
DAYTON REGION NEW MARKET FUND LLC,100,Dayton,OH,45402--190,8 North Main Street,www.citywidedev.com,
"Bridgeway Capital, Inc.",96,Pittsburgh,PA,15219,"310 Grant Street, Suite 2800",www.bridgewaycapital.org,
Rural Nevada Development Corporation,96,Ely,NV,89301--164,1320 E Aultman Street,http://www.rndcnv.org,
"HomesFund (La Plata Homes Fund, Inc.)",94,Durango,CO,81302--217,PO Box 2179,www.homesfund.org,
South Eastern Economic Development Corporation,94,Taunton,MA,02780--271,80 Dean Street,http://www.seedcorp.com,
Craft3,88,Seattle,WA,98104,"409 Maynard Avenue South, Suite 200",http://www.craft3.org,
"Affordable Homes of South Texas, Inc.",88,McAllen,TX,78501--522,1420 Erie Ave.,www.ahsti.org,
IFF,82,Chicago,IL,60604--410,"333 South Wabash Avenue
Suite 2800",www.iff.org,
"Utica Neighborhood Housing Services, Inc.",79,Utica,NY,13501--473,1611 Genesee Street,http://www.thehomeownershipcenter.org,
NHS Neighborhood Lending Services,77,Los Angeles,CA,90010--330,"3926 Wilshire Blvd,  Ste. 200",www.nhslacounty.org,
"Ithaca Neighborhood Housing Services, Inc.",70,Ithaca,NY,14850--563,115 West Clinton Street,www.ithacanhs.org,
Choctaw Home Finance Corporation,69,Hugo,OK,74743--801,P.O. Box G,www.choctawhomefinance.web-loans.com,
"Colorado Housing Enterprises, LLC",69,"Westminster	",CO,80030--170,"7305 Lowell Blvd.  Suite 200	",www.crhdc.org,
Rural Community Assistance Corporation,68,West Sacramento,CA,95691--501,3120 Freeboard Drive  Suite 201,www.rcac.org,
Montana Community Development Corporation,67,Missoula,MT,59802--453,229 East Main,www.mofi.org,
Grow South Dakota,66,Sisseton,SD,57262--190,104 Ash Street East,http://www.growsd.org,
"Chicago Community Loan Fund, The",65,Chicago,IL,60602--441,"29 East Madison Street, Suite 1700",www.cclfchicago.org,
Northern Maine Development Commission,64,Caribou,ME,04736--410,"11 West Presque Isle Road
PO Box 779",www.nmdc.org,www.crhdc.org
FINANTA,63,Philadelphia,PA,19122--450,1301 N. 2nd Street,http://www.finanta.org,
AltCap,61,Kansas City,MO,64111--153,"300 E. 39th Street, Suite  3G",http://www.altcap.org,
Florida Community Loan Fund,60,Orlando,FL,32803,"800 N. Magnolia Avenue
Suite 106",www.fclf.org,
"Community Loan Fund of New Jersey, Inc.",60,New Brunswick,NJ,08901--129,"100 Albany Street, Suite 250",www.newjerseycommunitycapital.org,
Columbus Housing Initiative,59,Columbus,GA,31902--162,PO Box 1620,http://nwcolumbus.org,
Small Business Assistance Corporation,55,Savannah,GA,31401--449,"111. E. Liberty Street, suite 100",www.sbacsav.com,
"Cooperative Business Assistance Corp, The",52,Camden,NJ,08102--152,328 Market Street,cbaclenders.com,
Greater Minnesota Housing Fund,52,St. Paul,MN,55101--131,332 Minnesota Street  Suite 1650 West,http://www.gmhf.com,
Invest Detroit Foundation,50,Detroit,MI,48243--180,600 Renaissance Center  Suite 1710,investdetroit.com,
"Coastal Enterprises, Inc.",50,Brunswick,ME,04011--151,"30 Federal Street
Suite 100",www.ceimaine.org,
"Affordable Housing Resources, Inc.",50,Nashville,TN,37228--152,"50 Vantage Way, Suite 107",www.ahrhousing.org,
Milwaukee Economic Development Corporation,50,Milwaukee,WI,53202--361,"757 North Broadway, Suite 600",http://www.medconline.com,
Capital for Change,50,Wallingford,CT,06492--243,10 Alexander Drive,www.capitalforchange.org,
CLIMB Fund,48,Charleston,SC,29403,2 Race Street,www.climbfund.org,
Aura Mortgage Advisors,48,Boston,MA,02119--177,10 Malcolm X Blvd,http://auramortgage.com/,
NeighborWorks Capital,48,Silver Spring,MD,20910--560,8484 Georgia Ave  Suite 330,www.neighborworkscapital.org,
NYBDC Local Development Corporation,47,Albany,NY,12207--153,50 Beaver Street,http://www.pursuitlending.com,
CommunityWorks,47,Greenville,SC,29606,PO Box 17826,http://communityworkscarolina.org,
Trenton Business Assistance Corporation,46,Mercerville,NJ,08619--163,3111 Quakerbridege Rd. - 2 floor,www.rbacloan.com,
CDCLI Funding Corporation,45,Melville,NY,11747,"1660 Walt Whitman Road, Suite 130",http://www.cdcli.org,
True Access Capital Corporation,45,Wilmington,DE,19801--165,100 West 10th St.  Suite 300,http://www.trueaccescapital.org,
"Community Ventures Corporation, Inc.",44,Lexington,KY,40505--316,1450 North Broadway,www.cvky.org,
California FarmLink,44,Aptos,CA,95003--395,335 Spreckels Dr. Suite F,http://www.californiafarmlink.org,
"TRP Lending, LLC",44,Chicago,IL,60608--272,1805 S Paulina St.,http://fullcirclehomes.org,
Hope Enterprise Corporation,42,Jackson,MS,39202--343,4 Old River Place  Suite A,https://www.hopecu.org,
Rocky Mountain Community Reinvestment Corporation,41,Salt Lake City,UT,84107,64 East Winchester Street Suite 330,www.rmcrc.org,
"Salt Lake Neighborhood Housing Services, Inc.",40,Salt Lake,UT,84116,622 West 500 North,www.nwsaltlake.org,
PIDC Community Capital,40,Philadelphia,PA,19102--211,1500 Market Street  Suite 3500 West,http://www.PIDCphila.com,
"Alaska Growth Capital BIDCO, Inc.",40,Anchorage,AK,99503,"3800 Centerpoint Drive, Suite 1100",http://www.alaskagrowth.com,
Valley Small Business Development Corporation,38,Fresno,CA,93711--076,7035 N. Fruit Avenue,http://VSBDC.com,
Rockford Community Investment Fund,38,Rockford,IL,61101,"120 W. State St., 306",Non given,
"Grow America Fund, Inc.",37,Boston,MA,02284--533,PO Box 845339,www.growamerica.org,
Housing Trust Silicon Valley,37,San Jose,CA,95113--183,"75 E Santa Clara Street, Suite 1350",http://www.housingtrustsv.org,
"Reinvestment Fund, Inc., The",37,Philadelphia,PA,19103--390,1700 Market Street  19th Floor,http://www.reinvestment.com,
Tulsa Economic Development Corporation,37,Tulsa,OK,74103--342,"125 W 3rd St, 2nd Fl",www.TEDCnet.com,
"Neighborhood Housing Services of Toledo, Inc.",36,Toledo,OH,43605--211,P. O. Box 8125,http://nwtoledo.org,
"Partner Community Capital, Inc.",35,Charles Town,WV,25414,P.O. Box 839,www.partnercapital.org,
"Access to Capital for Entrepreneurs, Inc.",35,Cleveland,GA,30528--838,3173 Highway 129 North,http://www.aceloans.org,
"Brightbridge, Inc.",35,Chattanooga,TN,37402,506 Broad Street,Non given,
Santa Fe Community Housing Trust,33,Santa Fe,NM,87592,PO Box 29237,www.housingtrustonline.org,
Southern Bancorp Capital Partners,32,Little Rock,AR,72211--350,"400 Hardin Road, Suite 100",www.southernpartners.org,
Ventura County Community Development Corporation,31,OXNARD,CA,93030,2231 Sturgis Road  Suite A,http://www.vccdc.org,
National Asian American Coalition,30,Daly City,CA,94015--141,"318 Westlake Center, Suite 270",http://www.naac.org,
"Cincinnati Development Fund, Inc.",28,Cincinnati,OH,45202--710,1224 Race Street,http://www.cincinnatidevelopmentfund.org,
"Impact Loan Fund, Inc.",28,Philadelphia,PA,19134--312,1952 East Allegheny Avenue,www.impactloanfund.org,
Detroit Development Fund,28,Detroit,MI,48202,"3031 W. Grand Blvd, Suite 505",www.detroitdevelopmentfund.com,
Housing Assistance Council,27,Washington,DC,20036,"1828 L Street NW, Suite 505",www.ruralhome.org,
Providence Revolving Fund,27,Providence,RI,02903--351,372 West Fountain Street,http://www.revolvingfund.org,
Nebraska Enterprise Fund,27,Oakland,NE,68045--113,330 N. Oakland Ave.,www.nebbiz.org,
Finance Fund Capital Corporation,26,Columbus,OH,43215,"366 East Broad Street, Suite 101",www.financefund.org,
"Neighborhood Housing Services of Duluth, Inc.",25,Duluth,MN,55805--187,12 East 4th St.,www.1roofhousing.org,
Portland Housing Center,25,Portland,OR,97232--255,3233 NE Sandy Blvd,www.portlandhousingcenter.org,
Hartford Community Loan Fund,25,Hartford,CT,06105,215 Garden St.,HartfordLoans.org,
"Forward Community Investments, Inc.",24,Madison,WI,53713,"2352 S Park Street
Suite 326",www.forwardci.org,
Rockingham Economic Development Corp,23,Raymond,NH,03077--232,57 Main Street,http://www.redc.com,
"Cook Inlet Lending Center, Inc.",22,Anchorage,AK,99503--377,"3600 Spenard Rd, Ste 100",www.cookinletlending.com,
"Baltimore Community Lending, Inc.",22,Baltimore,MD,21201,"875 Hollins Street, Suite 301",www.bclending.org,
"Pocatello Neighborhood Housing Services, Inc.",22,Pocatello,ID,83204--114,P.O. Box 1146,http://www.nwpocatello.org,
California Community Reinvestment Corp.,22,Glendale,CA,91210,100 West Broadway  Suite 1000,http://e-ccrc.org,
Justine Petersen Housing & Reinvestment Corporation,21,St. Louis,MO,63106,1023 North Grand Blvd,www.justinepetersen.org,
Northland Foundation,21,Duluth,MN,55802--194,"202 West Superior Street, Suite 800",http://www.northlandfdn.org,
Community Preservation Corporation,21,New York,NY,10017,"220 E 42nd Street, 16th Floor",www.communityp.com,
"Montana Homeownership Network, Inc. The",21,Great Falls,MT,59401--360,17 5th Street South,http://www.nwmt.org,
Genesis LA Economic Growth Corporation,21,Los Angeles,CA,90017--461,"801 S. Grand Avenue, Suite 850",http://www.genesisla.org,
Midwest Minnesota Community Development Corporation,20,Detroit Lakes,MN,56501--303,"119 Graystone Plaza, Suite 100",www.mmcdc.com,
"Solitas House, Inc.",20,Tampa,FL,33680,PO Box 310257,www.solitashouse.com,
BlueHub Loan Fund Inc,20,Boston,MA,02119--177,10 Malcolm X Boulevard,www.bluehubcapital.org,
"LiftFund, Inc.",20,San Antonio,TX,78210,2014 S. Hackberry St,www.liftfund.com,
South Carolina Community Loan Fund,19,Charleston,SC,29407--574,1051-A Gardner Road,http://www.sccommunityloanfund.org,
Tennessee Rural Development Fund LLC,19,Cookeville,TN,38501,"1227 N Washington Ave., Ste 107",www.tnrdf.com,
California Coastal Rural Development Corporation,19,Salinas,CA,93901--047,221 Main Street  Suite 301,http://www.calcoastal.org,
Wisconsin Women's Business Initiative Corporation,19,Milwaukee,WI,53212--391,1533 N RiverCenter Drive,www.wwbic.com,
"Enterprise Community Loan Fund, Inc.",19,Columbia,MD,21044--349,"70 Corporate Center  11000 Broken Land Parkway, Suite 700",http://www.enterprisecommunity.org,
"Common Capital, Inc.",18,Springfield,MA,01103,1780 Main Street,www.commoncapitalma.org,
Low Income Investment Fund,18,San Francisco,CA,94105,"49 Stevenson Street, Suite 300",http://www.liifund.org,
"Maryland Capital Enterprises, Inc.",18,Salisbury,MD,21804--523,314 Civic Avenue,www.marylandcapital.org,
Dakota Business Lending,17,Fargo,ND,58104,5630 36th Ave. S,www.dakotabusinesslending.com,
"Native360 Loan Fund, Inc.",16,GRAND ISLAND,NE,68802,PO Box 5683,https://native360.org/,
"NeighborGood Partners, Inc.",16,Dover,DE,19904--272,363 Saulsbury Rd,http://www.neighborgoodpartners.org,
Arcata Economic Development Corporation,16,Eureka,CA,95501,707 K Street,http://www.aedc1.org,
"Institute Capital, Inc.",15,Durham,NC,27701,114 West Parrish  Street,www.theinstitutenc.org,
"Southeast Rural Community Assistance Project, Inc.",15,Roanoke,VA,24016--362,347 Campbell Avenue,http://www.sercap.org,
"Black Business Investment Fund, Inc.",15,Orlando,FL,32801--273,301 E. Pine Street  Suite 175,www.bbif.com,
Homeownership Lending LLC,15,New York,NY,10005--402,120 Wall street  20th Floor,https://www.homeownershiplending.org/loanprogram,
SNAP Financial Access,14,Spokane,WA,99224--520,3102 W. Whistalks Way,https://snapfinancialaccess.org/,
"Worcester Community Housing Resources, Inc.",14,Worcester,MA,01609--322,"11 Pleasant Street, Suite 300",http://www.wchr.org,
HHOC Mortgage,14,Honolulu,HI,96817--396,1259 Aala St #201,http://www.hhocmortgage.org,
"First American Capital Corporation, Inc.",14,Hale Corners,WI,53130--203,10710 West Scharles Avenue,www.aiccw-facc.org,
African Development Center,13,Minneapolis,MN,55454--125,1931 South 5th Street,http://www.adcminnesota.org,
Prosperus Detroit Micro Lending,13,Detroit,MI,48202,"440 Burroughs Street, Suite 360",www.prosperusdetroit.org,
Ventana Fund,13,Albuquerque,NM,87125,P.O. Box 25483,www.ventanafund.org,
Latino Economic Development Center,12,Saint Paul,MN,55106,804 Margaret Street,http://www.ledcmn.org,
Haa Yakaawu Financial Corporation,12,Juneau,AK,99801,5446 Jenkins Drive,Non given,
"PathStone Enterprise Center, Inc.",12,Rochester,NY,14607--191,400 East Avenue,http://www.pseci.org,
Grand Rapids Opportunities for Women,12,Grand Rapids,MI,49507--380,1333 Alger St SE Ste 5,http://www.growbusiness.org,
"DreamKey Partners Mortgage, Inc.",12,Charlotte,NC,28217--192,4601 Charlotte Park Drive  Suite 350,www.dkp.org,
"Habitat for Humanity of Iowa, Inc.",12,Altoona,IA,50009--230,"809 8th St. SW, Ste F",http://www.iowahabitat.org,
Micro Enterprise Services of Oregon,11,Portland,OR,97212--111,4008 NE MLK Jr. Blvd,http://mesopdx.org,
Corporation for Supportive Housing,11,New York,NY,10006--270,"61 Broadway, 23rd Floor",www.csh.org,
Northwest Access Fund,11,Shoreline,WA,98155,PO Box 55759,http://www.nwaccessfund.org,
NEIGHBORHOOD DEVELOPMENT CENTER,11,SAINT PAUL,MN,55104--509,625 UNIVERSITY AVE W,www.ndc-mn.org,
"Frontier Housing, Inc.",11,Morehead,KY,40351--913,5445 Flemingsburg Road,http://www.FrontierKY.org,
Mercy Community Capital,11,DENVER,CO,80202--492,1600 Broadway SUITE 2000,www.mercycommunitycapital.org,
Prince Georges Financial Services Corporation,10,Largo,MD,20774--546,1801 McCormick Drive  Suite 300,www.fscfirst.com,
Northern Great Lakes Initiatives,10,Marquette,MI,49855,101 W. Washington St. Suite 9,www.northerninitiatives.org,
Cape & Islands Community Development Inc.,9,Centerville,MA,02632--142,5 Patti Page Way,http://www.coastalcommunitycapital.org,
"Habitat for Humanity NYC Fund, Inc.",9,New York,NY,10038--310,"111 John Street, 7th Floor, Suite 770",Non given,
CommunityWorks North Dakota,9,MANDAN,ND,58554--310,200 1st Avenue NW,www.lcdgroup.org,
Legacy Redevelopment Corporation,9,Milwaukee,WI,53205--124,1536B W. North Ave,www.lrcmke.com,
DreamSpring,9,Albuquerque,NM,87104--204,2000 Zearing Ave. NW,www.DreamSpring.org,
Community Investment Fund of Indiana Inc.,8,Indianapolis,IN,46240,"4181 East 96th Street, Ste 200",www.capitalizingIndiana.org,
Arkansas Capital Corporation,8,Little Rock,AR,72201--176,200 River Market Ave  Suite 400,Non given,
Shared Capital Cooperative,8,Saint Paul,MN,55114--176,"2388 University Ave W, Suite 300",www.sharedcapital.coop,
Thread Capital,8,Raleigh,NC,27610--291,4021 Carya Drive,www.threadcap.org,
"Raza Development Fund, Inc.",8,Phoenix,AZ,85040--304,410 E Southern Ave,www.razafund.org,
Eastern Maine Development Corporation,8,Bangor,ME,04401--510,40 Harlow Street,http://www.emdc.org,
"Wisconsin Native Loan Fund, Inc.",8,Lac du Flambeau,WI,54538--058,P.O. Box 580,www.winlf.org,
"Civic Community Partners, Inc.",8,San Diego,CA,92108--164,"8989 Rio San Diego Dr., Suite 100",http://www.CivicCommunities.com,
"Chattanooga Neighborhood Enterprise, Inc.",8,Chattanooga,TN,37408--101,"1500 Chestnut St., Suite 102",www.cneinc.org,
Piedmont Housing Alliance,8,Charlottesville,VA,22901,682 Berkmar Circle,www.piedmonthousingalliance.org,
Ventures,8,Seattle,WA,98144,"2100 24th Avenue S., Suite 380",www.venturesnonprofit.org,
"Habitat for Humanity of Minnesota, Inc.",7,St. Paul,MN,55114,2171 University Ave.W.,www.hfhmn.org,
Lake County Community Development Corp.,7,Ronan,MT,59864--271,407 Main Street SW,http://www.lakecountycdc.org/,
Ohio Capital Finance Corporation,7,Columbus,OH,43215--352,"88 East Broad Street,  Suite 1800",Non given,
"NewTown Loans, LLC",7,Macon,GA,31201,555 Poplar Street,www.newtownmacon.com/loans,
New Hope Community Capital Inc.,7,Boston,MA,02116--624,185 Dartmouth Street,http://www.newhopehousinginc.org/,
South Eastern Development Foundation,7,Sioux Falls,SD,57104--201,500 N Western Avenue  Suite 100,http://www.secog.org,
"Greenwood Archer Capital, Inc.",7,Chicago,IL,60628--461,1000 E. 111th Street  10th Floor,https://greenwoodarchercapital.org/,
Midlands Housing Trust Fund,7,Columbia,SC,29201,"1201 Main, Ste. 1480  Attn: Jeff Larimore",http://www.midlandshousing.org,
PACE Finance Corporation,7,Los Angeles,CA,90017--565,1055 Wilshire Blvd.  Suite 1475,www.pacela.org,
Northwest Native Development Fund,6,Coulee Dam,WA,99116--015,PO Box 154,www.thenndf.org,
"NHS Lending, Inc.",6,Boise,ID,83707--222,P.O. Box 8223,www.nwboise.org,
ECDC Enterprise Development Group,6,Arlington,VA,22204--240,901 S. Highland Street,https://www.edgus.org/,
PeopleFund,6,Austin,TX,78702--150,"2921 E. 17th Street  Building D, Suite 1",www.peoplefund.org,
City First Enterprises Inc,6,Washington,DC,20036,"1701 Rhode Island NW
Suite 3-103",http://www.cfenterprises.org,
Bridge Investment Community Development Corporation,6,Rock Island,IL,61201--802,"100 19th Street
Suite 109",www.bridgeinvestmentcdc.org,
"Local Enterprise Assistance Fund, Inc.",6,Boston,MA,02135,386 Western Ave.,www.leaffund.org,
NDC Community Impact Loan Fund,6,Boston,MA,02284--532,PO Box 845322,www.growamerica.org,
"Metro Community Development, Inc.",6,Flint,MI,48503,1174 Robert T. Longway Blvd.,http://www.metrocommunitydevelopment.com,
Mountain Housing Opportunities Loan Fund,6,Asheville,NC,28801--332,"64 Clingman Avenue, Suite 101",http://www.mtnhousing.org,
"The Working World, Inc. dba Seed Commons",5,New York,NY,10003,"228 Park Avenue S, Suite 65768",Non given,
Womenventure,5,SAINT PAUL,MN,55102--461,165 WESTERN AVE N STE 8,http://womenventure.org,
Invest PGH Inc.,5,Pittsburgh,PA,15219--134,"412 Boulevard of the Allies 
Suite 901",www.investpgh.org,
"Valley Economic Development Partners, Inc.",5,Youngstown,OH,44505--100,4319 Belmont Ave.,www.valleyedp.com,
Union County Economic Development Corporation,5,Cranford,NJ,07016--293,75 Chestnut Street,http://www.ucedc.com,
"Neighborhood Impact Investment Fund, Inc.",5,Baltimore,MD,21211,"PO Box 354
711 West 40th Street, Suite 153",https://www.baltimoreniif.org,
"3CORE, Inc.",5,Chico,CA,95973,2515 Ceanothus Ave Ste 105,http://www.3coreeedc.org,
"Edge Fund, LLC",5,Indianapolis,IN,46202--181,1704 Bellefontaine St,https://myedgefund.org/,
"NewWest Community Capital, Inc.",5,Boise,ID,83702,"950 W. Bannock Street, Suite 1100",www.newwestcapital.org,
Citizen Potawatomi Community Development Corporation,5,Shawnee,OK,74804--211,1545 Gordon Cooper Dr.,http://www.cpcdc.org,
Greater Newark Enterprises Corporation,5,Newark,NJ,07103--356,"211 Warren Street, Suite 423",www.gnec.org,
City First Homes Inc.,5,Washington,DC,20036,"1701 Rhode Island NW
Suite 3-103",www.cfhomes.org,
"Albany Community Together, Inc.",4,Albany,GA,31701--281,230 South Jackson Street  Suite 333,www.albanycommunitytogether.com,
"Western Reserve Community Fund, Inc",4,Akron,OH,44308,"c/o Development Finance Authority of Summit County
One Cascade Plaza, Suite 1700",Non given,
White Earth Investment Initiative,4,Ogema,MN,56569--003,407 Main St. E.  P.O. Box 38,www.weii.website,
Wind River Development Fund,4,Fort Washakie,WY,82514--066,P.O. Box 661,http://www.wrdf.org,
Quaboag Valley Business Assistance Corporation,4,Ware,MA,01082--135,"23 West Main Street, Suite #1",http://www.qvcdc.org,
"Communities Unlimited, Inc.",4,Fayetteville,AR,72703--288,3 East Colt Square Drive,http://www.CommunitiesU.org,
Community Development Resources,4,Lincoln,NE,68505,912 N. 70th St.,www.cdr-nebraska.org,
"Opening Doors, Inc.",4,Sacramento,CA,95825--854,"1111 Howe Ave., Suite 125",www.openingdoorsinc.org,
Growth Partners Arizona,4,Tucson,AZ,85711--263,"333 N. Wilmot Road
Suite 227",https://www.growthpartnersaz.org/,
Neighborhood Community Development Fund,4,Pittsburgh,PA,15214--000,3923 Perrysville Avenue,www.ncd-fund.org,
Network for Oregon Affordable Housing,4,Portland,OR,97201--516,"1750 S. Harbor Way, Suite 245",http://noah-housing.org,
"JARI Growth Fund, Inc.",4,Johnstown,PA,15901--291,"245 Market Street, Suite 200",www.jarigrowthfund.com,
Habitat for Humanity of Oregon,3,Portland,OR,97217--414,5825 N Greeley Ave,habitatoregon.org,
NACDC Financial Services Inc.,3,Browning,MT,59417--302,201 N. Piegan Street  P.O. Box 3029,www.nacdcfinancialservices.com,
"Gateway Community Development Fund, Inc.",3,St. Louis,MO,63102,707 N. 2nd Street  Suite 308,http://www.gatewaycdfi.com,
"TruFund Financial Services, Inc.",3,New York,NY,10018--232,"39 West 37th Street, 7th Floor",http://www.trufund.org,
Community First Lending,3,Richmond,CA,94801--152,1535 Fred Jackson Way Suite A,Not Available,
Hmong Wisconsin Chamber of Commerce,3,Milwaukee,WI,53225,5423 N. 118th Ct,http://hmongchamber.org,
"Flagship Enterprise Capital, Inc.",3,Anderson,IN,46013--967,2705 Enterprise Drive Suite #150,www.bankable.org,
Landmarks Community Capital Corporation,3,Pittsburgh,PA,15219--118,"100 W. Station Square Drive, Ste. 400",http://www.landmarkscommunitycapital.org,
Leviticus 25:23 Alternative Fund Inc,3,Tarrytown,NY,10591,220 White Plains Road Suite 415,www.leviticusfund.org,
"Community Reinvestment Fund, Inc",3,Minneapolis,MN,55402--253,801 Nicollet Mall  Suite 1700W,http://www.crfusa.com,
Lake Superior Community Development Corp.,3,L'Anse,MI,49946--101,1 N. Front Street,https://www.lakesuperiorcdc.com/,
"Carolina Community Impact, Inc.",3,Raleigh,NC,27622,P.O. Box 30662,Non given,
North Philadelphia Financial Partnership,3,Philadelphia,PA,19132--276,"1300 W. Lehigh Avenue, Suite 100",www.npfp.org,
Womens Economic Ventures,3,Santa Barbara,CA,93101--720,"21 E. Canon Perdido, Suite 301",http://www.wevonline.org,
Mvskoke Loan Fund,3,Okmulgee,OK,74447,P.O. Box 580,https://www.MvskokeFund.com,
Business Expansion Funding Corporation,3,Charlotte,NC,28210,"5970 Fairview Rd.
Suite 218",https://www.befcor.com/,
"Midwest Housing Development Fund, Inc.",3,Omaha,NE,68118--254,515 N 162nd Avenue  Suite 202,mhdfinc.com,
"Build Fund, LLC",3,indianapolis,IN,46202--181,1704 Bellefontaine Street,https://buildfund.org/,
"FORGE, Inc.",2,Huntsville,AR,72740--113,PO Box 1138,http://www.forgefund.org,
Catalyst Development Corporation,2,Savannah,GA,31401--550,"701 Martin Luther King, Jr. Blvd.",www.catalyst4people.org,
Native Community Capital,2,Laguna,NM,87026--017,PO Box 176,www.nativecap.org,
Appalachian Community Capital Corporation,2,Christiansburg,VA,24073--163,"110 Peppers Ferry Road, NW",appalachiancommunitycapitalcdfi.org,
Southern Colorado Community Lending LLC,2,Pueblo,CO,81004,1241 E Routt Ave.,Non given,
Washington Area Community Investment Fund,2,Washington,DC,20018--283,2012 Rhode Island Ave NE,http://www.wacif.org,
ADIRONDACK ECONMIC DEVELOPMENT CORPORATION,2,SARANAC LAKE,NY,12983--574,67 MAIN STREET SUITE 300,http://www.aedconline.com,
Piedmont Business Capital,2,Greensboro,NC,27406--220,"1451 S. Elm-Eugene Street
Suite 2121",www.piedmontbusinesscapital.org,
Northwest Side Community Development Corporation,2,Milwaukee,WI,53216--182,"4201 North 27th Street, 7th Floor  Century City Tower",http://www.nwscdc.org,
"Neighborhood Lending Partners of Florida, Inc.",2,Tampa,FL,33607--250,3615 West Spruce Street,www.nlp-inc.com,
Community Housing Fund,2,Beaverton,OR,97005--237,3700 SW Murray Blvd. #2200,http://thechf.org,
Community LendingWorks,2,Springfield,OR,97477--537,212 Main Street,http://www.communitylendingworks.org/,
Northern Community Investment Corporation,2,St. Johnsbury,VT,05819--279,"51 Depot Square, Suite #2",http://www.ncic.org,
Ripple Effect Entrepreneurs Fund,2,Lakewood,NJ,08701,"1750 Cedarbridge Avenue
Suite 3",www.njreef.org,
"FIVE RIVERS LOAN FUND, INC",2,Happy Camp,CA,96039--000,"PO BOX 805	",5rlf.org,
Housing Trust Fund Ventura County,2,Camarillo,CA,93010--632,"360 Mobil Ave., Suite 213A",www.housingtrustfundvc.org,
"Houston Business development, Inc.",2,Houston,TX,77021--377,5330 Griggs Road,http://www.hbdi.org,
AAFE Community Development Fund,2,New York,NY,10002--530,"2 Allen Street, 7th Floor",http://aafecdf.org/,
"Accompany Capital, Inc.",2,New York,NY,10271--309,"120 Broadway, Suite 230",www.accompanycapital.org,
Culleywood Capital,2,Jackson,MS,39216,"3100 Old Canton Road, Suite 200",https://www.culleywoodcapital.com,
Economic Development and Financing Corporation,2,Ukiah,CA,95482--484,208 B South Oak St.,http://www.edfc.org,
Hawaii Habitat for Humanity Association,1,Honolulu,HI,96822,"C/O LCH
1730 Punahou Street",http://hawaiihabitat.org/,
Hawaii Community Reinvestment Corporation,1,"HONOLULU	",HI,96801,"P.O. Box 3409	",http://www.hcrchawaii.com,
"Virginia Community Development Fund, Inc., The",1,Richmond,VA,23220--215,1840 West Broad Street  Suite 200,http://www.vacdc.org,
Homes Are Possible Inc.,1,Aberdeen,SD,57401,125 South 2nd Street,homesarepossible.org,
Vital Healthcare Capital,1,New York,NY,10004--278,"85 Broad Street, 18th Floor",www.VitalCap.org,
Initiative Foundation,1,Little Falls,MN,56345--300,405 First Street SE,http://www.ifound.org,
Greater Rochester Housing Partnership,1,Rochester,NY,14614,"16 East Main Street, suite 610",grhp.org,
"BAC Funding Consortium, Inc.",1,Miami,FL,33147--722,6600 NW 27th Avenue,www.bacfunding.com,
Community Development Capital,1,New Orleans,LA,70115--241,"3436 Magazine Street, Suite 601",www.cdcapital.org,
Cumberland Capital Partners,1,Nashville,TN,37211,2015 Gladstone Avenue,cumberlandcapitalpartners.org,
CORE Community Partners,1,Bingham Farms,MI,48025,32500 Telegraph Road,corecommunitypartners.com,
Nonprofit Finance Fund,1,New York,NY,10004--265,"5 Hanover Square, 9th FL",www.nff.org,
"CommunityWorks in West Virginia, Inc.",1,Charleston,WV,25302--471,4302 Crede Drive,http://www.communityworkswv.org,
First Children's Finance,1,"Minneapolis	",MN,55401,"212 Third Avenue North Suite 310	",http://www.firstchildrensfinance.org,
Community Neighborhood Housing Services,1,St Paul,MN,55103--191,533 Dale Street North,www.nwhomepartners.org,
Rising Tide Community Loan Fund,1,Bethlehem,PA,18015--210,1337 E 5th St.,www.therisingtide.org,
"Sacramento Neighborhood Housing Services, Inc.",1,Sacramento,CA,95817--310,"2411 Alhambra Blvd, Ste. 200",http://www.nwsacramento.org,
Community Assets for People,1,Stevens Point,WI,54481,"2900 Hoover Road
Suite A",www.capservices.org,
"MHIC, LLC",1,Boston,MA,02110--350,"21 Custom House Street,
8th Floor",www.mhic.com,
Self-Help Ventures Fund,1,Durham,NC,27702--361,P.O. Box 3619,www.self-help.org,
Community and Shelter Assistance Corporation,1,Sherwood,OR,97140--993,20508 SW Roy Rogers Road  Suite 155,http://www.casaoforegon.org,
"Genesis Fund, Inc.",1,Brunswick,ME,04011--191,22 Lincoln Street,http://www.genesisfund.org,
"Native Partnership for Housing, Inc.",1,Gallup,NM,87301--581,1664 South Second Street,www.npfh.org,
"Disability Fund, Inc., The",1,Rockville Centre,NY,11570--491,"265 Sunrise Highway
Suite 45",http://www.thedof.org,
Springboard CDFI,1,National City,CA,91950,"2140 Hoover Avenue, Suite 115",www.springboard.org,
Technical Assistance Corporation,1,St Louis,MO,63103--183,1627 Washington Ave,www.risecdfi.org,
"The Community Development Trust, Inc.",1,New York,NY,10018--770,1350 Broadway  Suite 700,www.cdt.biz,
Impact Capital,1,Seattle,WA,98104,701 Fifth Ave Suite 5500,www.impactcapital.org,